"ID","cluster_1","cluster_2","cluster_3","cluster_4","cluster_5","cluster_6","cluster_7","cluster_8","cluster_9","cluster_assign","coeff","TISSUE_ID","REGO","VOUCHER","ALTERNATIVE_ID","GENUS","SPECIES","UPDATED_SP","REGION","LOCATION","STATE","LAT","LON","VoucherNotes"
"CUMV_14591_Ct_hele",9.99344e-05,0.999201,9.99344e-05,9.99344e-05,9.99344e-05,9.99344e-05,9.99344e-05,9.99344e-05,9.99344e-05,"cluster_2",0.999201,"DLR0134","CU14591","CUMV_14591",NA,"Ctenotus","helenae","inornatus","Australia","Lorna Glen Stn, Western Australia","WA",-26.226,121.5575,NA
"CUMV_14596_Ct_hele",9.99343e-05,0.999201,9.99343e-05,9.99343e-05,9.99343e-05,9.99343e-05,9.99343e-05,9.99343e-05,9.99343e-05,"cluster_2",0.999201,"DLR0179","CU14596","CUMV_14596",NA,"Ctenotus","helenae","inornatus","Australia","Lorna Glen Stn, Western Australia","WA",-26.226,121.5575,NA
"CUMV_14601_Ct_hele",9.99348e-05,0.999201,9.99348e-05,9.99348e-05,9.99348e-05,9.99348e-05,9.99348e-05,9.99348e-05,9.99348e-05,"cluster_2",0.999201,"DLR0141","CU14601","CUMV_14601",NA,"Ctenotus","helenae","inornatus","Australia","Lorna Glen Stn, Western Australia","WA",-26.226,121.5575,NA
"CUMV_14602_Ct_hele",9.99343e-05,0.999201,9.99343e-05,9.99343e-05,9.99343e-05,9.99343e-05,9.99343e-05,9.99343e-05,9.99343e-05,"cluster_2",0.999201,"DLR0193","CU14602","CUMV_14602","HELEDLR0193","Ctenotus","helenae","inornatus","Australia","Lorna Glen Stn, Western Australia","WA",-26.226,121.5575,NA
"CUMV_14604_Ct_hele",9.99342e-05,0.999201,9.99342e-05,9.99342e-05,9.99342e-05,9.99342e-05,9.99342e-05,9.99342e-05,9.99342e-05,"cluster_2",0.999201,"DLR0223","CU14604","CUMV_14604","HELEDLR0223","Ctenotus","helenae","inornatus","Australia","Lorna Glen Stn, Western Australia","WA",-26.226,121.5575,NA
"CUMV_14606_Ct_hele",9.99343e-05,0.999201,9.99343e-05,9.99343e-05,9.99343e-05,9.99343e-05,9.99343e-05,9.99343e-05,9.99343e-05,"cluster_2",0.999201,"DLR0563","CU14606","CUMV_14606","HELEDLR0563","Ctenotus","helenae","inornatus","Australia","Yamarna Stn, Western Australia","WA",-28.133,123.8667,NA
"CUMV_14611_Ct_hele",9.99342e-05,0.999201,9.99342e-05,9.99342e-05,9.99342e-05,9.99342e-05,9.99342e-05,9.99342e-05,9.99342e-05,"cluster_2",0.999201,"DLR0278","CU14611","CUMV_14611","HELEDLR0278","Ctenotus","helenae","inornatus","Australia","Yamarna Stn, Western Australia","WA",-28.133,123.8667,NA
"CUMV_14612_Ct_hele",9.99339e-05,0.999201,9.99339e-05,9.99339e-05,9.99339e-05,9.99339e-05,9.99339e-05,9.99339e-05,9.99339e-05,"cluster_2",0.999201,"DLR0376","CU14612","CUMV_14612","HELEDLR0376","Ctenotus","helenae","inornatus","Australia","Lake Mason Stn, Western Australia","WA",-27.586,119.5208,NA
"CUMV_14656_Ct_hele",9.99346e-05,0.999201,9.99346e-05,9.99346e-05,9.99346e-05,9.99346e-05,9.99346e-05,9.99346e-05,9.99346e-05,"cluster_2",0.999201,"DLR0605","CU14656","CUMV_14656",NA,"Ctenotus","helenae","inornatus","Australia","Yamarna Stn, Western Australia","WA",-28.133,123.8667,NA
"NA_ABTC113741_Ct_saxa",9.99336e-05,9.99336e-05,9.99336e-05,9.99336e-05,0.999201,9.99336e-05,9.99336e-05,9.99336e-05,9.99336e-05,"cluster_5",0.999201,"ABTC113741",NA,"no_voucher",NA,"Ctenotus","saxatilis","lateralis","Australia","23.5k NE Alderley Homestead","QLD",-22.385,139.8564,NA
"NA_ABTC31797_Ct_saxa",9.99341e-05,0.999201,9.99341e-05,9.99341e-05,9.99341e-05,9.99341e-05,9.99341e-05,9.99341e-05,9.99341e-05,"cluster_2",0.999201,"ABTC31797",NA,"no_voucher","SAXAA31797","Ctenotus","saxatilis","inornatus","Australia","Log Cabin Dam, MacDonnell Ranges","NT",-23.8,133.2,NA
"NA_ABTC60781_Ct_hele",9.99344e-05,0.999201,9.99344e-05,9.99344e-05,9.99344e-05,9.99344e-05,9.99344e-05,9.99344e-05,9.99344e-05,"cluster_2",0.999201,"ABTC60781",NA,"no_voucher","HELEA60781","Ctenotus","helenae","inornatus","Australia","30km SW Sangster's Bore","NT",-20.83,130.42,NA
"NA_ABTC61569_Ct_robu",9.99337e-05,9.99337e-05,9.99337e-05,9.99337e-05,9.99337e-05,0.999201,9.99337e-05,9.99337e-05,9.99337e-05,"cluster_6",0.999201,"ABTC61569","R130167","no_voucher","ROBUA61569","Ctenotus","robustus","spaldingi","Australia","Smith's Lake","NSW",-32.4,152.5,NA
"NA_CCM0090_Ct_late",9.99423e-05,0.278623,9.99423e-05,9.99423e-05,0.720677,9.99423e-05,9.99423e-05,9.99423e-05,9.99423e-05,"cluster_5",0.720677,NA,NA,"no_voucher",NA,"Ctenotus","lateralis","lateralis","Australia","COBB GORGE - COBB12","QLD",-18.82119,143.40658,NA
"NA_CCM0535_Ct_inor",9.99345e-05,9.99345e-05,9.99345e-05,0.999201,9.99345e-05,9.99345e-05,9.99345e-05,9.99345e-05,9.99345e-05,"cluster_4",0.999201,NA,NA,"no_voucher",NA,"Ctenotus","inornatus","superciliaris","Australia","Vic River Region Escarpment Walk","NT",-15.61091,131.11597,NA
"NA_CCM0753_Ct_robu",9.99341e-05,9.99341e-05,9.99341e-05,9.99341e-05,9.99341e-05,9.99341e-05,9.99341e-05,9.99341e-05,0.999201,"cluster_9",0.999201,NA,NA,"no_voucher",NA,"Ctenotus","robustus","mastigura","Australia","Old Mitchell Road","WA",-15.1393,126.1571,NA
"NA_CCM0823_Ct_robu",9.99347e-05,9.99347e-05,9.99347e-05,9.99347e-05,9.99347e-05,9.99347e-05,9.99347e-05,9.99347e-05,0.999201,"cluster_9",0.999201,NA,NA,"no_voucher",NA,"Ctenotus","robustus","mastigura","Australia","Carson escarpment - TD1","WA",-15.3383,126.5917,NA
"NA_CCM0830_Ct_inor",9.99339e-05,9.99339e-05,9.99339e-05,9.99339e-05,9.99339e-05,9.99339e-05,9.99339e-05,9.99339e-05,0.999201,"cluster_9",0.999201,NA,NA,"no_voucher",NA,"Ctenotus","inornatus","mastigura","Australia","Carson escarpment - near camp","WA",-15.3394,126.5893,NA
"NA_CCM0847_Ct_robu",9.99342e-05,9.99342e-05,9.99342e-05,9.99342e-05,9.99342e-05,9.99342e-05,9.99342e-05,9.99342e-05,0.999201,"cluster_9",0.999201,NA,NA,"no_voucher",NA,"Ctenotus","robustus","mastigura","Australia","Old Mitchell - Q5","WA",-15.1328,126.1478,NA
"NA_CCM0848_Ct_inor",9.9934e-05,9.9934e-05,9.9934e-05,9.9934e-05,9.9934e-05,9.9934e-05,9.9934e-05,0.999201,9.9934e-05,"cluster_8",0.999201,NA,NA,"no_voucher",NA,"Ctenotus","inornatus","inornatus","Australia","Spring Creek - SS2","WA",-15.2002,125.9067,NA
"NA_CCM0849_Ct_inor",9.99343e-05,9.99343e-05,9.99343e-05,9.99343e-05,9.99343e-05,9.99343e-05,9.99343e-05,9.99343e-05,0.999201,"cluster_9",0.999201,NA,NA,"no_voucher",NA,"Ctenotus","inornatus","mastigura","Australia","Spring Creek - SS2","WA",-15.2002,125.9067,NA
"NA_CCM0850_Ct_inor",9.9934e-05,9.9934e-05,9.9934e-05,9.9934e-05,9.9934e-05,9.9934e-05,9.9934e-05,9.9934e-05,0.999201,"cluster_9",0.999201,NA,NA,"no_voucher",NA,"Ctenotus","inornatus","mastigura","Australia","Spring Creek - SS1","WA",-15.1989,125.9035,NA
"NA_CCM0946_Ct_inor",9.9934e-05,9.9934e-05,9.9934e-05,9.9934e-05,9.9934e-05,9.9934e-05,9.9934e-05,9.9934e-05,0.999201,"cluster_9",0.999201,NA,NA,"no_voucher",NA,"Ctenotus","inornatus","mastigura","Australia","King Ed Riv Theda, campsite, 30km N of Homestead","WA",-14.51903,126.45811,NA
"NA_CCM0956_Ct_robu",9.99337e-05,9.99337e-05,0.999201,9.99337e-05,9.99337e-05,9.99337e-05,9.99337e-05,9.99337e-05,9.99337e-05,"cluster_3",0.999201,NA,NA,"no_voucher",NA,"Ctenotus","robustus","robustus","Australia","Baitbox Hill, Theda, site 2, 10km N of HS","WA",-14.75187,126.47722,NA
"NA_CCM0980_Ct_mast",9.9934e-05,9.9934e-05,9.9934e-05,9.9934e-05,9.9934e-05,9.9934e-05,9.9934e-05,9.9934e-05,0.999201,"cluster_9",0.999201,NA,NA,"no_voucher",NA,"Ctenotus","mastigura","mastigura","Australia","Baitbox Hill, Theda, site 3, 10km N of HS","WA",-14.74225,126.46691,NA
"NA_CCM1061_Ct_sp",9.99339e-05,9.99339e-05,9.99339e-05,9.99339e-05,9.99339e-05,9.99339e-05,9.99339e-05,9.99339e-05,0.999201,"cluster_9",0.999201,NA,NA,"no_voucher",NA,"Ctenotus","sp","mastigura","Australia","Gibb River Camp","WA",-16.0969,126.5112,NA
"NA_CCM1206_Ct_robu",9.9934e-05,9.9934e-05,9.9934e-05,9.9934e-05,9.9934e-05,9.9934e-05,9.9934e-05,9.9934e-05,0.999201,"cluster_9",0.999201,NA,NA,"no_voucher",NA,"Ctenotus","robustus","mastigura","Australia","Mitchell Plateau  Surveyors Pool","WA",-14.671,125.733,NA
"NA_CCM1249_Ct_inor",9.9934e-05,9.9934e-05,9.9934e-05,9.9934e-05,9.9934e-05,9.9934e-05,9.9934e-05,0.999201,9.9934e-05,"cluster_8",0.999201,NA,NA,"no_voucher",NA,"Ctenotus","inornatus","inornatus","Australia","Silent Grove ranger station","WA",-17.06662,125.2501,NA
"NA_CCM1388_Ct_robu",9.99339e-05,9.99339e-05,0.999201,9.99339e-05,9.99339e-05,9.99339e-05,9.99339e-05,9.99339e-05,9.99339e-05,"cluster_3",0.999201,NA,NA,"no_voucher",NA,"Ctenotus","robustus","robustus","Australia","Potts riparian","WA",-16.4927,125.3447,NA
"NA_CCM1389_Ct_robu",9.993e-05,9.993e-05,0.999201,9.993e-05,9.993e-05,9.993e-05,9.993e-05,9.993e-05,9.993e-05,"cluster_3",0.999201,NA,NA,"no_voucher",NA,"Ctenotus","robustus","robustus","Australia","Potts Black soil","WA",-16.4668,125.3723,NA
"NA_CCM1390_Ct_inor",9.9934e-05,9.9934e-05,9.9934e-05,9.9934e-05,9.9934e-05,9.9934e-05,9.9934e-05,9.9934e-05,0.999201,"cluster_9",0.999201,NA,NA,"no_voucher",NA,"Ctenotus","inornatus","mastigura","Australia","Grevillea gorge","WA",-16.49954,125.33637,NA
"NA_CCM1409_Ct_robu",9.99335e-05,9.99335e-05,0.999201,9.99335e-05,9.99335e-05,9.99335e-05,9.99335e-05,9.99335e-05,9.99335e-05,"cluster_3",0.999201,NA,NA,"no_voucher",NA,"Ctenotus","robustus","robustus","Australia","Potts Black soil","WA",-16.4668,125.3723,NA
"NA_CCM1412_Ct_robu",9.99337e-05,9.99337e-05,0.999201,9.99337e-05,9.99337e-05,9.99337e-05,9.99337e-05,9.99337e-05,9.99337e-05,"cluster_3",0.999201,NA,NA,"no_voucher",NA,"Ctenotus","robustus","robustus","Australia","Potts riparian","WA",-16.494,125.3417,NA
"NA_CCM1415_Ct_robu",9.99337e-05,9.99337e-05,0.999201,9.99337e-05,9.99337e-05,9.99337e-05,9.99337e-05,9.99337e-05,9.99337e-05,"cluster_3",0.999201,NA,NA,"no_voucher",NA,"Ctenotus","robustus","robustus","Australia","Potts riparian campsite","WA",-16.4894,125.3518,NA
"NA_CCM1444_Ct_inor",9.99338e-05,9.99338e-05,9.99338e-05,9.99338e-05,9.99338e-05,9.99338e-05,9.99338e-05,0.999201,9.99338e-05,"cluster_8",0.999201,NA,NA,"no_voucher",NA,"Ctenotus","inornatus","inornatus","Australia","Chamberlain valley woodland","WA",-17.2932,127.2175,NA
"NA_CCM1445_Ct_inor",9.993e-05,9.993e-05,9.993e-05,9.993e-05,9.993e-05,9.993e-05,9.993e-05,0.999201,9.993e-05,"cluster_8",0.999201,NA,NA,"no_voucher",NA,"Ctenotus","inornatus","inornatus","Australia","Chamberlain valley riparian","WA",-17.2923,127.172,NA
"NA_CCM1529_Ct_inor",9.99341e-05,9.99341e-05,9.99341e-05,9.99341e-05,9.99341e-05,9.99341e-05,9.99341e-05,9.99341e-05,0.999201,"cluster_9",0.999201,NA,NA,"no_voucher",NA,"Ctenotus","inornatus","mastigura","Australia","Hahn River rocks","WA",-16.81627,126.07679,NA
"NA_CCM1530_Ct_robu",9.99338e-05,9.99338e-05,9.99338e-05,9.99338e-05,9.99338e-05,9.99338e-05,9.99338e-05,0.999201,9.99338e-05,"cluster_8",0.999201,NA,NA,"no_voucher",NA,"Ctenotus","robustus","inornatus","Australia","Police Valley site","WA",-16.82743,126.21642,NA
"NA_CCM1579_Ct_inor",9.9934e-05,9.9934e-05,9.9934e-05,9.9934e-05,9.9934e-05,9.9934e-05,9.9934e-05,9.9934e-05,0.999201,"cluster_9",0.999201,NA,NA,"no_voucher",NA,"Ctenotus","inornatus","mastigura","Australia","Barnett River Gorge","WA",-16.53559,126.12857,NA
"NA_CCM1580_Ct_inor",9.993e-05,9.993e-05,9.993e-05,9.993e-05,9.993e-05,9.993e-05,9.993e-05,0.999201,9.993e-05,"cluster_8",0.999201,NA,NA,"no_voucher",NA,"Ctenotus","inornatus","inornatus","Australia","Police valley camp","WA",-16.83117,126.22814,NA
"NA_CCM1710_Ct_inor",9.9934e-05,9.9934e-05,9.9934e-05,9.9934e-05,9.9934e-05,9.9934e-05,9.9934e-05,0.999201,9.9934e-05,"cluster_8",0.999201,NA,NA,"no_voucher",NA,"Ctenotus","inornatus","inornatus","Australia","Willeroo station tip","NT",-15.29606,131.58511,NA
"NA_CCM2292_Ct_inor",0.999201,9.99336e-05,9.99336e-05,9.99336e-05,9.99336e-05,9.99336e-05,9.99336e-05,9.99336e-05,9.99336e-05,"cluster_1",0.999201,"CCM2292",NA,NA,NA,"Ctenotus","inornatus","superciliaris","Australia","Kakadu fire plot 27","NT",-13.94278,132.90286,NA
"NA_CCM2497_Ct_spal",9.99337e-05,9.99337e-05,9.99337e-05,9.99337e-05,9.99337e-05,9.99337e-05,0.999201,9.99337e-05,9.99337e-05,"cluster_7",0.999201,"CCM2497",NA,NA,NA,"Ctenotus","spaldingi","spaldingi","Australia","Kakadu fire plot 133B","NT",-13.74413,132.62437,NA
"NA_CCM2518_Ct_vert",0.999201,9.99339e-05,9.99339e-05,9.99339e-05,9.99339e-05,9.99339e-05,9.99339e-05,9.99339e-05,9.99339e-05,"cluster_1",0.999201,"CCM2518",NA,NA,NA,"Ctenotus","vertebralis","superciliaris","Australia","Kakadu fire plot 26","NT",-13.3518,132.47234,NA
"NA_CCM2565_Ct_vert",0.999201,9.99336e-05,9.99336e-05,9.99336e-05,9.99336e-05,9.99336e-05,9.99336e-05,9.99336e-05,9.99336e-05,"cluster_1",0.999201,"CCM2565",NA,NA,NA,"Ctenotus","vertebralis","superciliaris","Australia","Kakadu fire plot 126","NT",-12.99761,132.93274,NA
"NA_CCM2866_Ct_robu",9.99339e-05,9.99339e-05,0.999201,9.99339e-05,9.99339e-05,9.99339e-05,9.99339e-05,9.99339e-05,9.99339e-05,"cluster_3",0.999201,"CCM2866",NA,NA,NA,"Ctenotus","robustus","robustus","Australia","Bluebush SV08 Mornington","WA",-17.55431,126.16461,NA
"NA_CCM3869_Ct_inor",0.999201,9.99336e-05,9.99336e-05,9.99336e-05,9.99336e-05,9.99336e-05,9.99336e-05,9.99336e-05,9.99336e-05,"cluster_1",0.999201,"CCM3869",NA,NA,NA,"Ctenotus","inornatus","superciliaris","Australia","Ngangkan","NT",-12.553874,134.028979,NA
"NA_CCM4920_Ct_essi",9.99341e-05,9.99341e-05,9.99341e-05,9.99341e-05,9.99341e-05,9.99341e-05,9.99341e-05,0.999201,9.99341e-05,"cluster_8",0.999201,NA,"CCM4920",NA,NA,"Ctenotus","essingtonii","inornatus","Australia","Edith Falls campsite, Nitmaluk NP",NA,-14.17983,132.18614,NA
"NA_CCM5477_Ct_vert",9.993e-05,9.993e-05,9.993e-05,9.993e-05,9.993e-05,9.993e-05,0.999201,9.993e-05,9.993e-05,"cluster_7",0.999201,NA,"CCM5477",NA,NA,"Ctenotus","vertebralis","spaldingi","Australia","Site 14 elliott trap, Nitmiluk NP",NA,-14.032029,132.306935,NA
"NTMR_13838_Ct_bore",9.99338e-05,9.99338e-05,0.999201,9.99338e-05,9.99338e-05,9.99338e-05,9.99338e-05,9.99338e-05,9.99338e-05,"cluster_3",0.999201,"ABTC28390","NTM13838","NTMR_13838","BOREA28390","Ctenotus","robustus","robustus","Australia","Kakadu NP","NT",-13.03,132.43,NA
"NTMR_17739_Ct_bore",9.99339e-05,9.99339e-05,0.999201,9.99339e-05,9.99339e-05,9.99339e-05,9.99339e-05,9.99339e-05,9.99339e-05,"cluster_3",0.999201,"ABTC29191","NTMR17739","NTMR_17739",NA,"Ctenotus","borealis","robustus","Australia","Casuarina Coastal Reserve","NT",-12.37,130.85,NA
"NTMR_18323_Ct_robu",9.99339e-05,9.99339e-05,0.999201,9.99339e-05,9.99339e-05,9.99339e-05,9.99339e-05,9.99339e-05,9.99339e-05,"cluster_3",0.999201,"ABTC30302","NTMR18323","NTMR_18323",NA,"Ctenotus","robustus","robustus","Australia","Willeroo","NT",-15.16083,131.6692,NA
"NTMR_20378_Ct_robu",9.99342e-05,9.99342e-05,0.999201,9.99342e-05,9.99342e-05,9.99342e-05,9.99342e-05,9.99342e-05,9.99342e-05,"cluster_3",0.999201,"ABTC29172","NTM20378","NTMR_20378","ROBUA29172","Ctenotus","robustus","robustus","Australia","Fogg Dam","NT",-12.55,131.3,NA
"NTMR_21670_Ct_spal",9.993e-05,9.993e-05,9.993e-05,9.993e-05,9.993e-05,9.993e-05,0.999201,9.993e-05,9.993e-05,"cluster_7",0.999201,"ABTC29600","NTMR21670","NTMR_21670",NA,"Ctenotus","spaldingi","spaldingi","Australia","10k N Larrimah","NT",-15.533,133.183,NA
"NTMR_22166_Ct_robu",9.99343e-05,9.99343e-05,0.999201,9.99343e-05,9.99343e-05,9.99343e-05,9.99343e-05,9.99343e-05,9.99343e-05,"cluster_3",0.999201,"ABTC29697","NTMR22166","NTMR_22166",NA,"Ctenotus","robustus","robustus","Australia","Litchfield NP","NT",-13.26472,130.9633,NA
"NTMR_22298_Ct_spal",9.99335e-05,9.99335e-05,9.99335e-05,9.99335e-05,9.99335e-05,9.99335e-05,0.999201,9.99335e-05,9.99335e-05,"cluster_7",0.999201,"ABTC30415","NTMR22298","NTMR_22298",NA,"Ctenotus","spaldingi","spaldingi","Australia","Limmen Gate NP","NT",-15.48333,135.4122,NA
"NTMR_22299_Ct_spal",9.99337e-05,9.99337e-05,9.99337e-05,9.99337e-05,9.99337e-05,9.99337e-05,0.999201,9.99337e-05,9.99337e-05,"cluster_7",0.999201,"ABTC30414","NTMR22299","NTMR_22299",NA,"Ctenotus","spaldingi","spaldingi","Australia","7k N Nathan River Station, Limmen Gate NP","NT",-15.53306,135.4081,NA
"NTMR_22325_Ct_spal",9.99338e-05,9.99338e-05,9.99338e-05,9.99338e-05,9.99338e-05,9.99338e-05,0.999201,9.99338e-05,9.99338e-05,"cluster_7",0.999201,"ABTC30410","NTMR22325","NTMR_22325",NA,"Ctenotus","spaldingi","spaldingi","Australia","Tawallah Creek Limmen Gate NP","NT",-16.01583,135.6669,NA
"NTMR_22620_Ct_robu",9.99337e-05,9.99337e-05,0.999201,9.99337e-05,9.99337e-05,9.99337e-05,9.99337e-05,9.99337e-05,9.99337e-05,"cluster_3",0.999201,"ABTC29870","NTMR22620","NTMR_22620",NA,"Ctenotus","robustus","robustus","Australia","Long Billabong Roper River","NT",-15.30667,135.3408,NA
"NTMR_22621_Ct_spal",9.993e-05,9.993e-05,9.993e-05,9.993e-05,9.993e-05,9.993e-05,0.999201,9.993e-05,9.993e-05,"cluster_7",0.999201,"ABTC29871","NTMR22621","NTMR_22621",NA,"Ctenotus","spaldingi","spaldingi","Australia","Long Billabong Roper River","NT",-15.30667,135.3408,NA
"NTMR_22622_Ct_spal",9.99337e-05,9.99337e-05,9.99337e-05,9.99337e-05,9.99337e-05,9.99337e-05,0.999201,9.99337e-05,9.99337e-05,"cluster_7",0.999201,"ABTC29872","NTMR22622","NTMR_22622",NA,"Ctenotus","spaldingi","spaldingi","Australia","Long Billabong Roper River","NT",-15.30667,135.3408,NA
"NTMR_23004_Ct_bore",9.99341e-05,9.99341e-05,0.999201,9.99341e-05,9.99341e-05,9.99341e-05,9.99341e-05,9.99341e-05,9.99341e-05,"cluster_3",0.999201,"ABTC30072","NTMR23004","NTMR_23004",NA,"Ctenotus","borealis","robustus","Australia","creek SW Pickertaramoor","NT",-11.78222,130.7744,NA
"NTMR_23960_Ct_robu",9.99338e-05,9.99338e-05,0.999201,9.99338e-05,9.99338e-05,9.99338e-05,9.99338e-05,9.99338e-05,9.99338e-05,"cluster_3",0.999201,"ABTC30705","NTMR23960","NTMR_23960",NA,"Ctenotus","robustus","robustus","Australia","Ramingining area Arafura Swamp","NT",-12.2175,134.9847,NA
"NTMR_25983_Ct_spal",9.99341e-05,9.99341e-05,9.99341e-05,0.999201,9.99341e-05,9.99341e-05,9.99341e-05,9.99341e-05,9.99341e-05,"cluster_4",0.999201,"ABTC70692","NTMR25983","NTMR_25983",NA,"Ctenotus","spaldingi","superciliaris","Australia","Jasper Gorge, Gregory National Park","NT",-16.03778,130.79,NA
"SAMAR_34180_Ct_bore",0.999201,9.9934e-05,9.9934e-05,9.9934e-05,9.9934e-05,9.9934e-05,9.9934e-05,9.9934e-05,9.9934e-05,"cluster_1",0.999201,"ABTC11881","SAMAR34180","SAMAR_34180",NA,"Ctenotus","borealis","superciliaris","Australia","Tanumbirini Station","NT",-16.45,134.6167,NA
"SAMAR_34202_Ct_spal",9.99339e-05,9.99339e-05,9.99339e-05,9.99339e-05,9.99339e-05,9.99339e-05,0.999201,9.99339e-05,9.99339e-05,"cluster_7",0.999201,"ABTC11919","SAMAR34202","SAMAR_34202",NA,"Ctenotus","spaldingi","spaldingi","Australia","Westmoreland Station","QLD",-17.33333,138.25,NA
"SAMAR_34261_Ct_late",9.99339e-05,9.99339e-05,9.99339e-05,9.99339e-05,0.999201,9.99339e-05,9.99339e-05,9.99339e-05,9.99339e-05,"cluster_5",0.999201,"ABTC11988",NA,"SAMAR_34261",NA,"Ctenotus","lateralis","lateralis","Australia","6k E Camooweel","QLD",-19.91667,138.1667,NA
"SAMAR_42687_Ct_late",9.99338e-05,9.99338e-05,9.99338e-05,9.99338e-05,0.999201,9.99338e-05,9.99338e-05,9.99338e-05,9.99338e-05,"cluster_5",0.999201,"ABTC8937",NA,"SAMAR_42687",NA,"Ctenotus","lateralis","lateralis","Australia","7k NE Mt Isa Telecom Repeator Station","QLD",-20.71667,139.55,NA
"SAMAR_42768_Ct_late",9.99338e-05,9.99338e-05,9.99338e-05,9.99338e-05,0.999201,9.99338e-05,9.99338e-05,9.99338e-05,9.99338e-05,"cluster_5",0.999201,"ABTC9010",NA,"SAMAR_42768",NA,"Ctenotus","lateralis","lateralis","Australia","GLEN KYREE Station  S WINTON","QLD",-22.96667,142.9,NA
"SAMAR_51093_Ct_spal",9.99341e-05,9.99341e-05,9.99341e-05,9.99341e-05,9.99341e-05,9.99341e-05,0.999201,9.99341e-05,9.99341e-05,"cluster_7",0.999201,"ABTC13415","SAMAR51093","SAMAR_51093",NA,"Ctenotus","spaldingi","spaldingi","Australia","2k S Elliott","NT",-17.56667,133.5333,NA
"SAMAR_54433_Ct_late",9.99338e-05,9.99338e-05,9.99338e-05,9.99338e-05,0.999201,9.99338e-05,9.99338e-05,9.99338e-05,9.99338e-05,"cluster_5",0.999201,"ABTC72838","SAMAR54433","SAMAR_54433",NA,"Ctenotus","lateralis","lateralis","Australia","21k S Burke & Wills RH","QLD",-19.39472,140.2367,NA
"SAMAR_54463_Ct_late",9.99339e-05,9.99339e-05,9.99339e-05,9.99339e-05,0.999201,9.99339e-05,9.99339e-05,9.99339e-05,9.99339e-05,"cluster_5",0.999201,"ABTC72875","SAMAR54463","SAMAR_54463",NA,"Ctenotus","lateralis","lateralis","Australia","Burke & Wills RH Dump","QLD",-19.22639,140.3481,NA
"SAMAR_54485_Ct_spal",9.993e-05,9.993e-05,9.993e-05,9.993e-05,9.993e-05,9.993e-05,0.999201,9.993e-05,9.993e-05,"cluster_7",0.999201,"ABTC72903","SAMAR54485","SAMAR_54485",NA,"Ctenotus","spaldingi","spaldingi","Australia","22k S Torrens Creek","QLD",-20.98583,145.0317,NA
"SAMAR_55259_Ct_late",9.99339e-05,9.99339e-05,9.99339e-05,9.99339e-05,0.999201,9.99339e-05,9.99339e-05,9.99339e-05,9.99339e-05,"cluster_5",0.999201,"ABTC82415","SAMAR55259","SAMAR_55259",NA,"Ctenotus","lateralis","lateralis","Australia","Phosphate Hill  Bloodwood site","QLD",-21.91306,140.0217,NA
"SAMAR_55675_Ct_spal",9.99342e-05,9.99342e-05,9.99342e-05,9.99342e-05,9.99342e-05,9.99342e-05,0.999201,9.99342e-05,9.99342e-05,"cluster_7",0.999201,"ABTC76994","SAMAR55675","SAMAR_55675",NA,"Ctenotus","spaldingi","spaldingi","Australia","~40k S Torrens Creek on Torrens Creek-Aramac Road","QLD",-21.09167,145.0044,NA
"SAMAR_55799_Ct_late",9.99425e-05,0.220315,9.99425e-05,9.99425e-05,0.778985,9.99425e-05,9.99425e-05,9.99425e-05,9.99425e-05,"cluster_5",0.778985,"ABTC77111","SAMAR55799","SAMAR_55799",NA,"Ctenotus","lateralis","lateralis","Australia","35k E Mt Surprise on Gulf Developmental Road","QLD",-18.12833,144.6328,NA
"SAMR_21493_Ct_robu",9.993e-05,9.993e-05,9.993e-05,9.993e-05,9.993e-05,0.999201,9.993e-05,9.993e-05,9.993e-05,"cluster_6",0.999201,"ABTC53607","SAM21493","SAMR_21493","ROBUA53607","Ctenotus","robustus","spaldingi","Australia","Coorong NP","SA",-35.567,138.966667,NA
"SAMR_28536_Ct_robu",9.993e-05,9.993e-05,9.993e-05,9.993e-05,9.993e-05,0.999201,9.993e-05,9.993e-05,9.993e-05,"cluster_6",0.999201,"ABTC53759","SAM28536","SAMR_28536","ROBUA53759","Ctenotus","robustus","spaldingi","Australia","Fresh Wells 67k NW Iron Knob","SA",-32.4,136.533333,NA
"SAMR_29707_Ct_brac",9.99429e-05,0.940111,9.99429e-05,9.99429e-05,0.0591893,9.99429e-05,9.99429e-05,9.99429e-05,9.99429e-05,"cluster_2",0.940111,"ABTC53772","SAM29707","SAMR_29707","BRACA53772","Ctenotus","brachyonyx","inornatus","Australia","Danggali CP","SA",-33.2,140.916667,NA
"SAMR_32932_Ct_robu",9.993e-05,9.993e-05,9.993e-05,9.993e-05,9.993e-05,0.999201,9.993e-05,9.993e-05,9.993e-05,"cluster_6",0.999201,"ABTC14912","SAM32932","SAMR_32932","ROBUA14912","Ctenotus","robustus","spaldingi","Australia","16km W Penola","SA",-37.367,140.65,NA
"SAMR_33525_Ct_robu",9.99338e-05,9.99338e-05,9.99338e-05,9.99338e-05,9.99338e-05,0.999201,9.99338e-05,9.99338e-05,9.99338e-05,"cluster_6",0.999201,"ABTC03662","SAM33525","SAMR_33525","ROBUA03662","Ctenotus","robustus","spaldingi","Australia","Lancoona H/S.","NSW",-33.367,145.883333,NA
"SAMR_33695_Ct_robu",9.99338e-05,9.99338e-05,9.99338e-05,9.99338e-05,9.99338e-05,0.999201,9.99338e-05,9.99338e-05,9.99338e-05,"cluster_6",0.999201,"ABTC03961","SAM33695","SAMR_33695","ROBUA03961","Ctenotus","robustus","spaldingi","Australia","Yamba tip","NSW",-29.433,153.366667,NA
"SAMR_33876_Ct_robu",9.99336e-05,9.99336e-05,9.99336e-05,9.99336e-05,9.99336e-05,0.999201,9.99336e-05,9.99336e-05,9.99336e-05,"cluster_6",0.999201,"ABTC03826","SAM33876","SAMR_33876","ROBUA03826","Ctenotus","robustus","spaldingi","Australia","Willowbank Caravan Pk.","QLD",-27.617,152.783333,NA
"SAMR_36252_Ct_brac",0.0507878,0.725072,9.9959e-05,9.9959e-05,0.0262477,9.9959e-05,9.9959e-05,0.197393,9.9959e-05,"cluster_2",0.725072,"ABTC56697","SAM36252","SAMR_36252","BRACA56697","Ctenotus","brachyonyx","inornatus","Australia","Billiat CP","SA",-34.9,140.45,NA
"SAMR_36313_Ct_robu",9.99337e-05,9.99337e-05,9.99337e-05,9.99337e-05,9.99337e-05,0.999201,9.99337e-05,9.99337e-05,9.99337e-05,"cluster_6",0.999201,"ABTC56710","SAM36313","SAMR_36313","ROBUA56710","Ctenotus","robustus","spaldingi","Australia","Telowie Gorge","SA",-33.017,138.1,NA
"SAMR_36349_Ct_brac",9.99343e-05,0.999201,9.99343e-05,9.99343e-05,9.99343e-05,9.99343e-05,9.99343e-05,9.99343e-05,9.99343e-05,"cluster_2",0.999201,"ABTC56718","SAM36349","SAMR_36349",NA,"Ctenotus","brachyonyx","inornatus","Australia","20k ESE Kalladeina Bore","SA",-27.717,139.316667,NA
"SAMR_38776_Ct_saxa",0.999201,9.99338e-05,9.99338e-05,9.99338e-05,9.99338e-05,9.99338e-05,9.99338e-05,9.99338e-05,9.99338e-05,"cluster_1",0.999201,"ABTC12005","SAM38776","SAMR_38776","SAXAA12005","Ctenotus","saxatilis","superciliaris","Australia","Phillip Creek Mission (abandoned)","NT",-19.283,134.216667,NA
"SAMR_39480_Ct_robu",9.99337e-05,9.99337e-05,9.99337e-05,9.99337e-05,9.99337e-05,0.999201,9.99337e-05,9.99337e-05,9.99337e-05,"cluster_6",0.999201,"ABTC34469","SAM39480","SAMR_39480","ROBUA34469","Ctenotus","robustus","spaldingi","Australia","20KM NE of Murray Bridge","SA",-35.022,139.463889,NA
"SAMR_40718_Ct_robu",9.99337e-05,9.99337e-05,9.99337e-05,9.99337e-05,9.99337e-05,0.999201,9.99337e-05,9.99337e-05,9.99337e-05,"cluster_6",0.999201,"ABTC57450","SAM40718","SAMR_40718",NA,"Ctenotus","robustus","spaldingi","Australia","Cooks North, Middleback Rngs","SA",-33.167,137.133333,NA
"SAMR_42758_Ct_late",9.99337e-05,9.99337e-05,9.99337e-05,9.99337e-05,0.999201,9.99337e-05,9.99337e-05,9.99337e-05,9.99337e-05,"cluster_5",0.999201,"ABTC09000","SAM42758","SAMR_42758","LATEA09000","Ctenotus","lateralis","lateralis","Australia","S OF WINTON","QLD",-22.667,142.933333,NA
"SAMR_44367_Ct_hele",9.99339e-05,0.999201,9.99339e-05,9.99339e-05,9.99339e-05,9.99339e-05,9.99339e-05,9.99339e-05,9.99339e-05,"cluster_2",0.999201,"ABTC41506","SAM44367","SAMR_44367","HELEA41506","Ctenotus","helenae","inornatus","Australia","12.5k ENE Mt Cooparinna","SA",-26.346,130.09,NA
"SAMR_45480_Ct_saxa",9.993e-05,0.999201,9.993e-05,9.993e-05,9.993e-05,9.993e-05,9.993e-05,9.993e-05,9.993e-05,"cluster_2",0.999201,"ABTC41729","SAM45480","SAMR_45480","SAXAA41729","Ctenotus","saxatilis","inornatus","Australia","9.7k S Ampeinna Hills","SA",-27.157,131.131111,NA
"SAMR_46119_Ct_hele",9.99342e-05,0.999201,9.99342e-05,9.99342e-05,9.99342e-05,9.99342e-05,9.99342e-05,9.99342e-05,9.99342e-05,"cluster_2",0.999201,"ABTC41775","SAM46119","SAMR_46119","HELEA41775","Ctenotus","helenae","inornatus","Australia","27k NE Pipalyatjara","SA",-26.053,129.408056,NA
"SAMR_46204_Ct_robu",9.993e-05,9.993e-05,9.993e-05,9.993e-05,9.993e-05,0.999201,9.993e-05,9.993e-05,9.993e-05,"cluster_6",0.999201,"ABTC35548","SAM46204","SAMR_46204",NA,"Ctenotus","robustus","spaldingi","Australia","4k N Halifax Hill","SA",-29.684,135.815278,NA
"SAMR_46880_Ct_saxa",9.99341e-05,0.999201,9.99341e-05,9.99341e-05,9.99341e-05,9.99341e-05,9.99341e-05,9.99341e-05,9.99341e-05,"cluster_2",0.999201,"ABTC36128","SAM46880","SAMR_46880","SAXAA36128","Ctenotus","saxatilis","inornatus","Australia","11.1k ESE Mt Goodiar Witjira NP","SA",-26.688,135.716667,NA
"SAMR_48684_Ct_robu",9.99338e-05,9.99338e-05,9.99338e-05,9.99338e-05,9.99338e-05,0.999201,9.99338e-05,9.99338e-05,9.99338e-05,"cluster_6",0.999201,"ABTC58575","SAM48684","SAMR_48684","ROBUA58575","Ctenotus","robustus","spaldingi","Australia","Moonaree Stn","SA",-31.705,135.525556,NA
"SAMR_48710_Ct_hele",9.9934e-05,0.999201,9.9934e-05,9.9934e-05,9.9934e-05,9.9934e-05,9.9934e-05,9.9934e-05,9.9934e-05,"cluster_2",0.999201,"ABTC41974","SAM48710","SAMR_48710","HELEA41974","Ctenotus","helenae","inornatus","Australia","4k W Mt Lindsay SA","SA",-27.029,129.839167,NA
"SAMR_48962_Ct_robu",9.99338e-05,9.99338e-05,9.99338e-05,9.99338e-05,9.99338e-05,0.999201,9.99338e-05,9.99338e-05,9.99338e-05,"cluster_6",0.999201,"ABTC37169","SAM48962","SAMR_48962","ROBUA37169","Ctenotus","robustus","spaldingi","Australia","Andamooka Stn","SA",-30.742,137.313611,NA
"SAMR_49609_Ct_robu",9.993e-05,9.993e-05,9.993e-05,9.993e-05,9.993e-05,0.999201,9.993e-05,9.993e-05,9.993e-05,"cluster_6",0.999201,"ABTC37540","SAM49609","SAMR_49609",NA,"Ctenotus","robustus","spaldingi","Australia","7k NE Hatherleigh SA","SA",-37.438,140.313611,NA
"SAMR_50208_Ct_saxa",9.99428e-05,0.769197,9.99428e-05,9.99428e-05,0.230103,9.99428e-05,9.99428e-05,9.99428e-05,9.99428e-05,"cluster_2",0.769197,"ABTC42206","SAM50208","SAMR_50208","SAXAA42206","Ctenotus","saxatilis","inornatus","Australia","11.2k SW Sentinel Hill","SA",-26.141,132.359167,NA
"SAMR_50372_Ct_robu",9.99336e-05,9.99336e-05,9.99336e-05,9.99336e-05,9.99336e-05,0.999201,9.99336e-05,9.99336e-05,9.99336e-05,"cluster_6",0.999201,"ABTC38130","SAM50372","SAMR_50372","ROBUA38130","Ctenotus","robustus","spaldingi","Australia","1k SE Mt Aroona","SA",-30.584,138.368889,NA
"SAMR_52303_Ct_robu",9.99339e-05,9.99339e-05,9.99339e-05,9.99339e-05,9.99339e-05,0.999201,9.99339e-05,9.99339e-05,9.99339e-05,"cluster_6",0.999201,"ABTC39414","SAM52303","SAMR_52303","ROBUA39414","Ctenotus","robustus","spaldingi","Australia","1.5k S Camel Yard Spring","SA",-30.66,139.091111,NA
"SAMR_53975_Ct_saxa",0.999201,9.99345e-05,9.99345e-05,9.99345e-05,9.99345e-05,9.99345e-05,9.99345e-05,9.99345e-05,9.99345e-05,"cluster_1",0.999201,"ABTC72677","SAM53975","SAMR_53975",NA,"Ctenotus","saxatilis","superciliaris","Australia","Barrow Creek channel just N town","NT",-21.5,133.9,NA
"SAMR_54340_Ct_late",9.99339e-05,9.99339e-05,9.99339e-05,9.99339e-05,0.999201,9.99339e-05,9.99339e-05,9.99339e-05,9.99339e-05,"cluster_5",0.999201,"ABTC72759","SAM54340","SAMR_54340","LATEA72759","Ctenotus","lateralis","lateralis","Australia","East Leichardt Dam","QLD",-20.775,139.7856,NA
"SAMR_54434_Ct_late",9.99339e-05,9.99339e-05,9.99339e-05,9.99339e-05,0.999201,9.99339e-05,9.99339e-05,9.99339e-05,9.99339e-05,"cluster_5",0.999201,"ABTC72839","SAM54434","SAMR_54434","LATEA72839","Ctenotus","lateralis","lateralis","Australia","21k S Burke & Wills RH","QLD",-19.395,140.236667,NA
"SAMR_55725_Ct_spal",9.99346e-05,9.99346e-05,9.99346e-05,9.99346e-05,9.99346e-05,9.99346e-05,0.999201,9.99346e-05,9.99346e-05,"cluster_7",0.999201,"ABTC77041","SAM55725","SAMR_55725","SPALA77041","Ctenotus","spaldingi","spaldingi","Australia","33k NNE Hughenden on Kennedy Developmental Rd","QLD",-20.624,144.399722,NA
"SAMR_65407_Ct_late",9.99336e-05,9.99336e-05,9.99336e-05,9.99336e-05,0.999201,9.99336e-05,9.99336e-05,9.99336e-05,9.99336e-05,"cluster_5",0.999201,"ABTC113882","SAM65407","SAMR_65407",NA,"Ctenotus","lateralis","lateralis","Australia","17.1k W Noonbah Homestead","QLD",-24.10167,143.0175,NA
"SAMR_65416_Ct_late",9.99337e-05,9.99337e-05,9.99337e-05,9.99337e-05,0.999201,9.99337e-05,9.99337e-05,9.99337e-05,9.99337e-05,"cluster_5",0.999201,"ABTC113822","SAM65416","SAMR_65416",NA,"Ctenotus","lateralis","lateralis","Australia","3.7k SSE Noonbah Homestead","QLD",-24.13611,143.2017,NA
"UMMZ_242614_Ct_hele",9.99343e-05,0.999201,9.99343e-05,9.99343e-05,9.99343e-05,9.99343e-05,9.99343e-05,9.99343e-05,9.99343e-05,"cluster_2",0.999201,"UMFS_20505",NA,"UMMZ_242614",NA,"Ctenotus","helenae","inornatus","Australia","Dampier Downs Station, Western Australia","WA",-18.11428,123.55069,NA
"UMMZ_242616_Ct_hele",9.99344e-05,0.999201,9.99344e-05,9.99344e-05,9.99344e-05,9.99344e-05,9.99344e-05,9.99344e-05,9.99344e-05,"cluster_2",0.999201,"UMFS_20510",NA,"UMMZ_242616",NA,"Ctenotus","helenae","inornatus","Australia","Dampier Downs Station, Western Australia","WA",-18.11428,123.55069,NA
"UMMZ_242623_Ct_hele",9.99348e-05,0.999201,9.99348e-05,9.99348e-05,9.99348e-05,9.99348e-05,9.99348e-05,9.99348e-05,9.99348e-05,"cluster_2",0.999201,"UMFS_20603",NA,"UMMZ_242623",NA,"Ctenotus","helenae","inornatus","Australia","Stretch Lagoon","WA",-19.678985,127.58666,NA
"UMMZ_242624_Ct_inor",9.99341e-05,9.99341e-05,9.99341e-05,0.999201,9.99341e-05,9.99341e-05,9.99341e-05,9.99341e-05,9.99341e-05,"cluster_4",0.999201,"UMFS_20506",NA,"UMMZ_242624",NA,"Ctenotus","inornatus","superciliaris","Australia","Dampier Downs Station, Western Australia","WA",-18.09191,123.56942,NA
"UMMZ_242629_Ct_inor",9.99341e-05,9.99341e-05,9.99341e-05,0.999201,9.99341e-05,9.99341e-05,9.99341e-05,9.99341e-05,9.99341e-05,"cluster_4",0.999201,"UMFS_20597",NA,"UMMZ_242629",NA,"Ctenotus","inornatus","superciliaris","Australia","Carranya Station, Western Australia","WA",-19.2425,127.78279,NA
"UMMZ_242630_Ct_inor",9.99343e-05,9.99343e-05,9.99343e-05,0.999201,9.99343e-05,9.99343e-05,9.99343e-05,9.99343e-05,9.99343e-05,"cluster_4",0.999201,"UMFS_20599",NA,"UMMZ_242630",NA,"Ctenotus","inornatus","superciliaris","Australia","Carranya Station, Western Australia","WA",-19.24257,127.78061,NA
"UMMZ_244288_ct_inor",9.99339e-05,0.999201,9.99339e-05,9.99339e-05,9.99339e-05,9.99339e-05,9.99339e-05,9.99339e-05,9.99339e-05,"cluster_2",0.999201,"UMFS_21396",NA,"UMMZ_244288",NA,"Ctenotus","inornatus","inornatus","Australia","PERON PENINSULA SITE PP1","WA",-26.05799,113.61562,NA
"WAMR_094929_Ct_hele",9.99339e-05,0.999201,9.99339e-05,9.99339e-05,9.99339e-05,9.99339e-05,9.99339e-05,9.99339e-05,9.99339e-05,"cluster_2",0.999201,"WAM_R094929","WAM094929","WAMR_094929","HELEW094929","Ctenotus","helenae","inornatus","Australia","THOMPSON HILLS","WA",-21.333,124.75,NA
"WAMR_102423_Ct_saxa",9.9934e-05,0.999201,9.9934e-05,9.9934e-05,9.9934e-05,9.9934e-05,9.9934e-05,9.9934e-05,9.9934e-05,"cluster_2",0.999201,"WAM_R102423","WAM102423","WAMR_102423","SAXAW102423","Ctenotus","saxatilis","inornatus","Australia","BARLEE RANGE NATURE RESER","WA",-23.102,116.007778,NA
"WAMR_102771_Ct_hele",9.9934e-05,0.999201,9.9934e-05,9.9934e-05,9.9934e-05,9.9934e-05,9.9934e-05,9.9934e-05,9.9934e-05,"cluster_2",0.999201,"WAM_R102771","WAM102771","WAMR_102771","HELE102771","Ctenotus","helenae","inornatus","Australia","LITTLE SANDY DESERT","WA",-24.532,120.291111,NA
"WAMR_108698_Ct_saxa",9.99339e-05,9.99339e-05,9.99339e-05,0.999201,9.99339e-05,9.99339e-05,9.99339e-05,9.99339e-05,9.99339e-05,"cluster_4",0.999201,"WAM_R108698","WAM108698","WAMR_108698","SAXAW108698","Ctenotus","saxatilis","superciliaris","Australia","CHEERABUN HS","WA",-18.183,125.116667,NA
"WAMR_108745_Ct_saxa",9.99341e-05,9.99341e-05,9.99341e-05,0.999201,9.99341e-05,9.99341e-05,9.99341e-05,9.99341e-05,9.99341e-05,"cluster_4",0.999201,"WAM_R108745","WAM108745","WAMR_108745","SAXAW108745","Ctenotus","saxatilis","superciliaris","Australia","MABEL DOWNS STATION","WA",-17.283,128.183333,NA
"WAMR_108816_Ct_saxa",9.993e-05,9.993e-05,9.993e-05,0.999201,9.993e-05,9.993e-05,9.993e-05,9.993e-05,9.993e-05,"cluster_4",0.999201,"WAM_R108816","WAM108816","WAMR_108816","SAXAW108816","Ctenotus","saxatilis","superciliaris","Australia","CHERRALTA HOMESTEAD","WA",-21.033,116.816667,NA
"WAMR_126017_Ct_inor",9.99341e-05,9.99341e-05,9.99341e-05,9.99341e-05,9.99341e-05,9.99341e-05,9.99341e-05,0.999201,9.99341e-05,"cluster_8",0.999201,"WAM_R126017","WAM126017","WAMR_126017","INORW126017","Ctenotus","inornatus","inornatus","Australia","KIMBERLEY RESEARCH STATIO","WA",-15.658,128.686389,NA
"WAMR_129923_Ct_hele",9.99341e-05,0.999201,9.99341e-05,9.99341e-05,9.99341e-05,9.99341e-05,9.99341e-05,9.99341e-05,9.99341e-05,"cluster_2",0.999201,"WAM_R129923","WAM129923","WAMR_129923","HELEW129923","Ctenotus","helenae","inornatus","Australia","WEST ANGELAS","WA",-23.25,118.666667,NA
"WAMR_131009_Ct_hele",9.99339e-05,0.999201,9.99339e-05,9.99339e-05,9.99339e-05,9.99339e-05,9.99339e-05,9.99339e-05,9.99339e-05,"cluster_2",0.999201,"WAM_R131009","WAM131009","WAMR_131009","HELEW131009","Ctenotus","helenae","inornatus","Australia","MILLSTREAM-CHICHESTER NP","WA",-21.19,117.172222,NA
"WAMR_131018_Ct_fall",9.99339e-05,0.999201,9.99339e-05,9.99339e-05,9.99339e-05,9.99339e-05,9.99339e-05,9.99339e-05,9.99339e-05,"cluster_2",0.999201,"WAM_R131018","WAM131018","WAMR_131018","FALLW131018","Ctenotus","inornatus","inornatus","Australia","HAMELIN HOMESTEAD","WA",-26.567,114.233333,NA
"WAMR_131371_Ct_hele",9.99341e-05,0.999201,9.99341e-05,9.99341e-05,9.99341e-05,9.99341e-05,9.99341e-05,9.99341e-05,9.99341e-05,"cluster_2",0.999201,"WAM_R131371","WAM131371","WAMR_131371","HELEW131371","Ctenotus","helenae","inornatus","Australia","NANUTARRA ROADHOUSE","WA",-22.833,115.033333,NA
"WAMR_132522_Ct_saxa",9.99338e-05,9.99338e-05,9.99338e-05,0.999201,9.99338e-05,9.99338e-05,9.99338e-05,9.99338e-05,9.99338e-05,"cluster_4",0.999201,"WAM_R132522","WAM132522","WAMR_132522","SAXAW132522","Ctenotus","saxatilis","superciliaris","Australia","BURRUP PENINSULA","WA",-20.616,116.785,NA
"WAMR_132682_Ct_saxa",9.99341e-05,9.99341e-05,9.99341e-05,0.999201,9.99341e-05,9.99341e-05,9.99341e-05,9.99341e-05,9.99341e-05,"cluster_4",0.999201,"WAM_R132682","WAM132682","WAMR_132682","SAXAW132682","Ctenotus","saxatilis","superciliaris","Australia","SHAY GAP","WA",-20.616,120.276111,NA
"WAMR_132686_Ct_saxa",9.993e-05,9.993e-05,9.993e-05,0.999201,9.993e-05,9.993e-05,9.993e-05,9.993e-05,9.993e-05,"cluster_4",0.999201,"WAM_R132686","WAM132686","WAMR_132686",NA,"Ctenotus","saxatilis","superciliaris","Australia","SHAY GAP","WA",-20.579,120.318611,NA
"WAMR_132723_Ct_saxa",9.99337e-05,9.99337e-05,9.99337e-05,0.999201,9.99337e-05,9.99337e-05,9.99337e-05,9.99337e-05,9.99337e-05,"cluster_4",0.999201,"WAM_R132723","WAM132723","WAMR_132723","SAXAW132723","Ctenotus","saxatilis","superciliaris","Australia","GOLDSWORTHY","WA",-20.318,119.423333,NA
"WAMR_135396_Ct_hele",9.99339e-05,0.999201,9.99339e-05,9.99339e-05,9.99339e-05,9.99339e-05,9.99339e-05,9.99339e-05,9.99339e-05,"cluster_2",0.999201,"WAM_R135396","WAM135396","WAMR_135396","HELEW135396","Ctenotus","helenae","inornatus","Australia","MT BROCKMAN STATION","WA",-22.42,117.43,NA
"WAMR_137950_Ct_robu",9.99339e-05,9.99339e-05,0.999201,9.99339e-05,9.99339e-05,9.99339e-05,9.99339e-05,9.99339e-05,9.99339e-05,"cluster_3",0.999201,"WAM_R137950","WAM137950","WAMR_137950","ROBUW137950","Ctenotus","robustus","robustus","Australia","KUNUNURRA","WA",-15.589,128.983333,NA
"WAMR_139005_Ct_saxa",9.99338e-05,9.99338e-05,9.99338e-05,0.999201,9.99338e-05,9.99338e-05,9.99338e-05,9.99338e-05,9.99338e-05,"cluster_4",0.999201,"WAM_R139005","WAM139005","WAMR_139005",NA,"Ctenotus","saxatilis","superciliaris","Australia","MANDORA","WA",-19.746,121.4575,NA
"WAMR_140720_Ct_hele",9.993e-05,0.999201,9.993e-05,9.993e-05,9.993e-05,9.993e-05,9.993e-05,9.993e-05,9.993e-05,"cluster_2",0.999201,"WAM_R140720","WAM140720","WAMR_140720",NA,"Ctenotus","helenae","inornatus","Australia","HOPE DOWNS","WA",-22.821,119.325833,NA
"WAMR_145567_Ct_hele",9.99339e-05,0.999201,9.99339e-05,9.99339e-05,9.99339e-05,9.99339e-05,9.99339e-05,9.99339e-05,9.99339e-05,"cluster_2",0.999201,"WAM_R145567","WAM145567","WAMR_145567",NA,"Ctenotus","helenae","inornatus","Australia","PORT HEDLAND","WA",-20.61,118.61,NA
"WAMR_152991_Ct_seve",9.99427e-05,0.882567,9.99427e-05,9.99427e-05,0.116733,9.99427e-05,9.99427e-05,9.99427e-05,9.99427e-05,"cluster_2",0.882567,"WAM_R152991","WAM152991","WAMR_152991","SEVEW152991","Ctenotus","severus","inornatus","Australia","WALGA ROCK","WA",-27.399,117.470833,NA
"WAMR_153812_Ct_saxa",9.99338e-05,9.99338e-05,9.99338e-05,0.999201,9.99338e-05,9.99338e-05,9.99338e-05,9.99338e-05,9.99338e-05,"cluster_4",0.999201,"WAM_R153812","WAM153812","WAMR_153812","SAXAW153812","Ctenotus","saxatilis","superciliaris","Australia","YARDIE HOMESTEAD CARAVAN ","WA",-21.894,114.009444,NA
"WAMR_166390_Ct_hele",9.993e-05,0.999201,9.993e-05,9.993e-05,9.993e-05,9.993e-05,9.993e-05,9.993e-05,9.993e-05,"cluster_2",0.999201,"ABTC91786","WAM166390","WAMR_166390","HELEA91786","Ctenotus","helenae","inornatus","Australia","Morgan Range","WA",-25.9386,128.3897,NA
"WAMR_166391_Ct_hele",9.99346e-05,0.999201,9.99346e-05,9.99346e-05,9.99346e-05,9.99346e-05,9.99346e-05,9.99346e-05,9.99346e-05,"cluster_2",0.999201,"ABTC91631","WAM166391","WAMR_166391","HELEA91631","Ctenotus","helenae","inornatus","Australia","0.5k E Pungkulpirri Waterhole, Walter James Ranges","WA",-24.6542,128.7553,NA
