"ID","cluster_1","cluster_2","cluster_3","cluster_4","cluster_5","cluster_6","cluster_7","cluster_8","cluster_9","cluster_10","cluster_11","cluster_12","cluster_assign","coeff","TISSUE_ID","REGO","VOUCHER","ALTERNATIVE_ID","GENUS","SPECIES","UPDATED_SP","REGION","LOCATION","STATE","LAT","LON","VoucherNotes"
"AMSR_138399_Ct_uber",9.99123e-05,0.993068,9.99123e-05,9.99123e-05,9.99123e-05,9.99123e-05,0.00593277,9.99123e-05,9.99123e-05,9.99123e-05,9.99123e-05,9.99123e-05,"cluster_2",0.993068,"ABTC75825",NA,"AMSR_138399",NA,"Ctenotus","uber","uber","Australia","Sturt NP","NSW",-29.422,142.283,NA
"AMSR_152993_Ct_uber",9.99037e-05,0.998901,9.99037e-05,9.99037e-05,9.99037e-05,9.99037e-05,9.99037e-05,9.99037e-05,9.99037e-05,9.99037e-05,9.99037e-05,9.99037e-05,"cluster_2",0.998901,"ABTC75881",NA,"AMSR_152993",NA,"Ctenotus","uber","uber","Australia","Milparinka","NSW",-29.733,141.867,NA
"AMSR_153434_Ct_uber",9.99034e-05,9.99034e-05,9.99034e-05,9.99034e-05,9.99034e-05,9.99034e-05,0.998901,9.99034e-05,9.99034e-05,9.99034e-05,9.99034e-05,9.99034e-05,"cluster_7",0.998901,"ABTC75883",NA,"AMSR_153434",NA,"Ctenotus","uber","olympicus","Australia","Glen Tilt Station","NSW",-33.748,143.582,NA
"CUMV_14377_Ct_gree",9.99034e-05,9.99034e-05,9.99034e-05,9.99034e-05,9.99034e-05,9.99034e-05,9.99034e-05,9.99034e-05,0.998901,9.99034e-05,9.99034e-05,9.99034e-05,"cluster_9",0.998901,"DLR0324","CU14377","CUMV_14377","GREEDLR0324","Ctenotus","greeri","greeri","Australia","Yamarna Stn, Western Australia","WA",-28.133,123.8667,NA
"CUMV_14378_Ct_gree",9.99034e-05,9.99034e-05,9.99034e-05,9.99034e-05,9.99034e-05,9.99034e-05,9.99034e-05,9.99034e-05,0.998901,9.99034e-05,9.99034e-05,9.99034e-05,"cluster_9",0.998901,"DLR0344","CU14378","CUMV_14378",NA,"Ctenotus","greeri","greeri","Australia","Yamarna Stn, Western Australia","WA",-28.133,123.8667,NA
"CUMV_14467_Ct_leae",9.99036e-05,9.99036e-05,9.99036e-05,9.99036e-05,9.99036e-05,9.99036e-05,9.99036e-05,0.998901,9.99036e-05,9.99036e-05,9.99036e-05,9.99036e-05,"cluster_8",0.998901,"DLR0271","CU14467","CUMV_14467","LEAEDLR0271","Ctenotus","leae","leae","Australia","Yamarna Stn, Western Australia","WA",-28.133,123.8667,NA
"CUMV_14468_Ct_leae",9.99034e-05,9.99034e-05,9.99034e-05,9.99034e-05,9.99034e-05,9.99034e-05,9.99034e-05,0.998901,9.99034e-05,9.99034e-05,9.99034e-05,9.99034e-05,"cluster_8",0.998901,"DLR0454","CU14468","CUMV_14468","LEAEDLR0454","Ctenotus","leae","leae","Australia","Yamarna Stn, Western Australia","WA",-28.133,123.8667,NA
"CUMV_14469_Ct_leae",9.99034e-05,9.99034e-05,9.99034e-05,9.99034e-05,9.99034e-05,9.99034e-05,9.99034e-05,0.998901,9.99034e-05,9.99034e-05,9.99034e-05,9.99034e-05,"cluster_8",0.998901,"DLR0528","CU14469","CUMV_14469","LEAEDLR0528","Ctenotus","leae","leae","Australia","Yamarna Stn, Western Australia","WA",-28.133,123.8667,NA
"CUMV_14470_Ct_leae",9.99035e-05,9.99035e-05,9.99035e-05,9.99035e-05,9.99035e-05,9.99035e-05,9.99035e-05,0.998901,9.99035e-05,9.99035e-05,9.99035e-05,9.99035e-05,"cluster_8",0.998901,"DLR0570","CU14470","CUMV_14470","LEAEDLR0570","Ctenotus","leae","leae","Australia","Yamarna Stn, Western Australia","WA",-28.133,123.8667,NA
"CUMV_14730_Ct_leon",0.998901,9.99034e-05,9.99034e-05,9.99034e-05,9.99034e-05,9.99034e-05,9.99034e-05,9.99034e-05,9.99034e-05,9.99034e-05,9.99034e-05,9.99034e-05,"cluster_1",0.998901,"DLR0039","CU14730","CUMV_14730","LEONDLR0039","Ctenotus","leonhardii","leonhardii","Australia","Lorna Glen Stn, Western Australia","WA",-26.226,121.5575,NA
"CUMV_14742_Ct_leon",0.998901,9.99034e-05,9.99034e-05,9.99034e-05,9.99034e-05,9.99034e-05,9.99034e-05,9.99034e-05,9.99034e-05,9.99034e-05,9.99034e-05,9.99034e-05,"cluster_1",0.998901,"DLR0367","CU14742","CUMV_14742","LEONDLR0367","Ctenotus","leonhardii","leonhardii","Australia","Yamarna Stn, Western Australia","WA",-28.133,123.8667,NA
"CUMV_14744_Ct_leon",0.998901,9.99034e-05,9.99034e-05,9.99034e-05,9.99034e-05,9.99034e-05,9.99034e-05,9.99034e-05,9.99034e-05,9.99034e-05,9.99034e-05,9.99034e-05,"cluster_1",0.998901,"DLR0371","CU14744","CUMV_14744","LEONDLR0371","Ctenotus","leonhardii","leonhardii","Australia","Lake Mason Stn, Western Australia","WA",-27.586,119.5208,NA
"CUMV_14847_Ct_quat",9.99035e-05,9.99035e-05,9.99035e-05,9.99035e-05,9.99035e-05,9.99035e-05,9.99035e-05,9.99035e-05,9.99035e-05,9.99035e-05,9.99035e-05,0.998901,"cluster_12",0.998901,"DLR0526","CU14847","CUMV_14847","QUATDLR0526","Ctenotus","quattuordecimlineatus","quattuordecimlineatus","Australia","Yamarna Stn, Western Australia","WA",-28.133,123.8667,NA
"NA_ABTC10512_Ct_leae",9.99035e-05,9.99035e-05,9.99035e-05,9.99035e-05,9.99035e-05,9.99035e-05,9.99035e-05,0.998901,9.99035e-05,9.99035e-05,9.99035e-05,9.99035e-05,"cluster_8",0.998901,"ABTC10512",NA,"no_voucher",NA,"Ctenotus","leae","leae","Australia","Officer Basin","WA",-29.96667,123.7667,NA
"NA_ABTC113897_Ct_hebe",9.99034e-05,9.99034e-05,0.998901,9.99034e-05,9.99034e-05,9.99034e-05,9.99034e-05,9.99034e-05,9.99034e-05,9.99034e-05,9.99034e-05,9.99034e-05,"cluster_3",0.998901,"ABTC113897",NA,"no_voucher",NA,"Ctenotus","hebetior","hebetior","Australia","5.3k SW Ballards tank, Plevna Downs","QLD",-26.76278,142.5239,NA
"NA_ABTC86833_Ct_regi",9.99038e-05,9.99038e-05,9.99038e-05,9.99038e-05,9.99038e-05,9.99038e-05,9.99038e-05,9.99038e-05,9.99038e-05,0.998901,9.99038e-05,9.99038e-05,"cluster_10",0.998901,"ABTC86833","No voucher","no_voucher",NA,"Ctenotus","regius","regius","Australia","Nowingi","VIC",-34.58333,142.2167,NA
"NA_CCM1955_Ct_leon",0.563181,9.99124e-05,9.99124e-05,9.99124e-05,9.99124e-05,9.99124e-05,9.99124e-05,9.99124e-05,9.99124e-05,9.99124e-05,0.435819,9.99124e-05,"cluster_1",0.563181,"CCM1955",NA,NA,NA,"Ctenotus","leonhardii","leonhardii","Australia","Barrow Creek","NT",-21.53197,133.88919,NA
"NTMR_13629_Ct_gree",9.99035e-05,9.99035e-05,9.99035e-05,9.99035e-05,9.99035e-05,9.99035e-05,9.99035e-05,9.99035e-05,0.998901,9.99035e-05,9.99035e-05,9.99035e-05,"cluster_9",0.998901,"ABTC61693","NTM13629","NTMR_13629","GREEA61693","Ctenotus","greeri","greeri","Australia","Elliot","NT",-17.617,133.517,NA
"NTMR_25649_Ct_leon",9.99035e-05,9.99035e-05,9.99035e-05,9.99035e-05,9.99035e-05,9.99035e-05,9.99035e-05,9.99035e-05,9.99035e-05,9.99035e-05,0.998901,9.99035e-05,"cluster_11",0.998901,"ABTC70645","NTM25649","NTMR_25649","LEONA70645","Ctenotus","leonhardii","leonhardii","Australia","Stuart Highway; Kulgera","NT",-25.845,133.310556,NA
"QMJ_62373_Ct_asta",9.99034e-05,9.99034e-05,9.99034e-05,0.998901,9.99034e-05,9.99034e-05,9.99034e-05,9.99034e-05,9.99034e-05,9.99034e-05,9.99034e-05,9.99034e-05,"cluster_4",0.998901,"ABTC32189","QMJ62373","QMJ_62373",NA,"Ctenotus","astarte","astarte","Australia","Morney Station Dump","QLD",-25.36667,141.4667,NA
"SAMAR_24688_Ct_leae",9.99036e-05,9.99036e-05,9.99036e-05,9.99036e-05,9.99036e-05,9.99036e-05,9.99036e-05,0.998901,9.99036e-05,9.99036e-05,9.99036e-05,9.99036e-05,"cluster_8",0.998901,"ABTC53671","SAMAR24688","SAMAR_24688",NA,"Ctenotus","leae","leae","Australia","13k SSW Merty Merty HS","SA",-28.66667,140.2167,NA
"SAMAR_25645_Ct_orie",9.99035e-05,0.998901,9.99035e-05,9.99035e-05,9.99035e-05,9.99035e-05,9.99035e-05,9.99035e-05,9.99035e-05,9.99035e-05,9.99035e-05,9.99035e-05,"cluster_2",0.998901,"ABTC40781","SAMAR25645","SAMAR_25645",NA,"Ctenotus","orientalis","orientalis","Australia","near Colona Station","SA",-31.53333,132.2667,NA
"SAMAR_28517_Ct_olym",9.99035e-05,9.99035e-05,9.99035e-05,9.99035e-05,9.99035e-05,9.99035e-05,0.998901,9.99035e-05,9.99035e-05,9.99035e-05,9.99035e-05,9.99035e-05,"cluster_7",0.998901,"ABTC53757","SAMAR28517","SAMAR_28517",NA,"Ctenotus","olympicus","olympicus","Australia","115-120k NE Minnipa","SA",-32.33333,136.2833,NA
"SAMAR_29853_Ct_leae",9.99037e-05,9.99037e-05,9.99037e-05,9.99037e-05,9.99037e-05,9.99037e-05,9.99037e-05,0.998901,9.99037e-05,9.99037e-05,9.99037e-05,9.99037e-05,"cluster_8",0.998901,"ABTC4196",NA,"SAMAR_29853",NA,"Ctenotus","leae","leae","Australia","Curtin Springs","NT",-25.5,131.8167,NA
"SAMAR_31877_Ct_regi",9.99035e-05,9.99035e-05,9.99035e-05,9.99035e-05,9.99035e-05,9.99035e-05,9.99035e-05,9.99035e-05,9.99035e-05,0.998901,9.99035e-05,9.99035e-05,"cluster_10",0.998901,"ABTC64062","SAMAR31877","SAMAR_31877",NA,"Ctenotus","regius","regius","Australia","2k E Mt Finke","SA",-30.92389,134.0303,NA
"SAMAR_31889_Ct_leae",9.99034e-05,9.99034e-05,9.99034e-05,9.99034e-05,9.99034e-05,9.99034e-05,9.99034e-05,0.998901,9.99034e-05,9.99034e-05,9.99034e-05,9.99034e-05,"cluster_8",0.998901,"ABTC64052","SAMAR31889","SAMAR_31889",NA,"Ctenotus","leae","leae","Australia","9.2k NE Mt Finke","SA",-30.89278,134.1,NA
"SAMAR_32054_Ct_leae",9.99035e-05,9.99035e-05,9.99035e-05,9.99035e-05,9.99035e-05,9.99035e-05,9.99035e-05,0.998901,9.99035e-05,9.99035e-05,9.99035e-05,9.99035e-05,"cluster_8",0.998901,"ABTC64144","SAMAR32054","SAMAR_32054",NA,"Ctenotus","leae","leae","Australia","5.5k S Immarna Siding","SA",-30.55194,132.145,NA
"SAMAR_32289_Ct_regi",9.99036e-05,9.99036e-05,9.99036e-05,9.99036e-05,9.99036e-05,9.99036e-05,9.99036e-05,9.99036e-05,9.99036e-05,0.998901,9.99036e-05,9.99036e-05,"cluster_10",0.998901,"ABTC64325","SAMAR32289","SAMAR_32289",NA,"Ctenotus","regius","regius","Australia","29k N Muckera RH","SA",-29.85972,130.1022,NA
"SAMAR_36086_Ct_leae",9.99035e-05,9.99035e-05,9.99035e-05,9.99035e-05,9.99035e-05,9.99035e-05,9.99035e-05,0.998901,9.99035e-05,9.99035e-05,9.99035e-05,9.99035e-05,"cluster_8",0.998901,"ABTC30801","SAMAR36086","SAMAR_36086",NA,"Ctenotus","leae","leae","Australia","Yulara","NT",-25.23333,131.0167,NA
"SAMAR_38335_Ct_orie",9.99037e-05,0.998901,9.99037e-05,9.99037e-05,9.99037e-05,9.99037e-05,9.99037e-05,9.99037e-05,9.99037e-05,9.99037e-05,9.99037e-05,9.99037e-05,"cluster_2",0.998901,"ABTC57134","SAMAR38335","SAMAR_38335",NA,"Ctenotus","orientalis","orientalis","Australia","Roonka  10k N Blanchetown","SA",-34.28333,139.6333,NA
"SAMAR_38585_Ct_leae",9.99035e-05,9.99035e-05,9.99035e-05,9.99035e-05,9.99035e-05,9.99035e-05,9.99035e-05,0.998901,9.99035e-05,9.99035e-05,9.99035e-05,9.99035e-05,"cluster_8",0.998901,"ABTC57254","SAMAR38585","SAMAR_38585",NA,"Ctenotus","leae","leae","Australia","50m S Yorkeys Crossing","SA",-32.41667,137.75,NA
"SAMAR_39580_Ct_orie",9.99037e-05,0.998901,9.99037e-05,9.99037e-05,9.99037e-05,9.99037e-05,9.99037e-05,9.99037e-05,9.99037e-05,9.99037e-05,9.99037e-05,9.99037e-05,"cluster_2",0.998901,"ABTC34524","SAMAR39580","SAMAR_39580",NA,"Ctenotus","orientalis","orientalis","Australia","7.5k NNW Kirra","SA",-35.71583,140.8469,NA
"SAMAR_40597_Ct_regi",9.99033e-05,9.99033e-05,9.99033e-05,9.99033e-05,9.99033e-05,9.99033e-05,9.99033e-05,9.99033e-05,9.99033e-05,0.998901,9.99033e-05,9.99033e-05,"cluster_10",0.998901,"ABTC57401","SAMAR40597","SAMAR_40597",NA,"Ctenotus","regius","regius","Australia","4k E Lake Woorong","SA",-29.45,134.2,NA
"SAMAR_40799_Ct_leae",9.99036e-05,9.99036e-05,9.99036e-05,9.99036e-05,9.99036e-05,9.99036e-05,9.99036e-05,0.998901,9.99036e-05,9.99036e-05,9.99036e-05,9.99036e-05,"cluster_8",0.998901,"ABTC57490","SAMAR40799","SAMAR_40799",NA,"Ctenotus","leae","leae","Australia","3k W Wirrappa Rail Siding","SA",-31.4,136.9667,NA
"SAMAR_40888_Ct_regi",9.99034e-05,9.99034e-05,9.99034e-05,9.99034e-05,9.99034e-05,9.99034e-05,9.99034e-05,9.99034e-05,9.99034e-05,0.998901,9.99034e-05,9.99034e-05,"cluster_10",0.998901,"ABTC57523","SAMAR40888","SAMAR_40888",NA,"Ctenotus","regius","regius","Australia","Morgan CP","SA",-34.05,139.1833,NA
"SAMAR_41282_Ct_olym",9.99035e-05,9.99035e-05,9.99035e-05,9.99035e-05,9.99035e-05,9.99035e-05,0.998901,9.99035e-05,9.99035e-05,9.99035e-05,9.99035e-05,9.99035e-05,"cluster_7",0.998901,"ABTC39891","SAMAR41282","SAMAR_41282",NA,"Ctenotus","olympicus","olympicus","Australia","Twenty Three Mile Dam","SA",-33.70278,140.9889,NA
"SAMAR_42675_Ct_pulc",9.99036e-05,9.99036e-05,9.99036e-05,9.99036e-05,9.99036e-05,0.998901,9.99036e-05,9.99036e-05,9.99036e-05,9.99036e-05,9.99036e-05,9.99036e-05,"cluster_6",0.998901,"ABTC8928",NA,"SAMAR_42675",NA,"Ctenotus","pulchellus","pulchellus","Australia","138k N Boulia","QLD",-21.73333,139.55,NA
"SAMAR_42701_Ct_pulc",9.99001e-05,9.99001e-05,9.99001e-05,9.99001e-05,9.99001e-05,0.998901,9.99001e-05,9.99001e-05,9.99001e-05,9.99001e-05,9.99001e-05,9.99001e-05,"cluster_6",0.998901,"ABTC8951",NA,"SAMAR_42701",NA,"Ctenotus","pulchellus","pulchellus","Australia","Quamby","QLD",-20.36667,140.2833,NA
"SAMAR_42708_Ct_pulc",9.99034e-05,9.99034e-05,9.99034e-05,9.99034e-05,9.99034e-05,0.998901,9.99034e-05,9.99034e-05,9.99034e-05,9.99034e-05,9.99034e-05,9.99034e-05,"cluster_6",0.998901,"ABTC8955",NA,"SAMAR_42708",NA,"Ctenotus","pulchellus","pulchellus","Australia","Mica Creek  near Mount Isa","QLD",-20.76667,139.4833,NA
"SAMAR_42776_Ct_hebe",9.99035e-05,9.99035e-05,0.998901,9.99035e-05,9.99035e-05,9.99035e-05,9.99035e-05,9.99035e-05,9.99035e-05,9.99035e-05,9.99035e-05,9.99035e-05,"cluster_3",0.998901,"ABTC9018",NA,"SAMAR_42776",NA,"Ctenotus","hebetior","hebetior","Australia","GLEN KYREE Station  S WINTON","QLD",-22.96667,142.9,NA
"SAMAR_42788_Ct_hebe",9.99034e-05,9.99034e-05,0.998901,9.99034e-05,9.99034e-05,9.99034e-05,9.99034e-05,9.99034e-05,9.99034e-05,9.99034e-05,9.99034e-05,9.99034e-05,"cluster_3",0.998901,"ABTC9030",NA,"SAMAR_42788",NA,"Ctenotus","hebetior","hebetior","Australia","Diamantina Station dump","QLD",-23.75,141.1333,NA
"SAMAR_42823_Ct_asta",9.99035e-05,9.99035e-05,9.99035e-05,0.998901,9.99035e-05,9.99035e-05,9.99035e-05,9.99035e-05,9.99035e-05,9.99035e-05,9.99035e-05,9.99035e-05,"cluster_4",0.998901,"ABTC9068",NA,"SAMAR_42823",NA,"Ctenotus","astarte","astarte","Australia","Springvale dump","QLD",-23.55,140.6833,NA
"SAMAR_42840_Ct_asta",9.99034e-05,9.99034e-05,9.99034e-05,0.998901,9.99034e-05,9.99034e-05,9.99034e-05,9.99034e-05,9.99034e-05,9.99034e-05,9.99034e-05,9.99034e-05,"cluster_4",0.998901,"ABTC9085",NA,"SAMAR_42840",NA,"Ctenotus","astarte","astarte","Australia","Mt Windsor","QLD",-23.63333,141.6667,NA
"SAMAR_42843_Ct_asta",9.99035e-05,9.99035e-05,9.99035e-05,0.998901,9.99035e-05,9.99035e-05,9.99035e-05,9.99035e-05,9.99035e-05,9.99035e-05,9.99035e-05,9.99035e-05,"cluster_4",0.998901,"ABTC9088",NA,"SAMAR_42843",NA,"Ctenotus","astarte","astarte","Australia","59k E Mt Windsor","QLD",-23.63333,142.2,NA
"SAMAR_42880_Ct_hebe",9.99035e-05,9.99035e-05,0.998901,9.99035e-05,9.99035e-05,9.99035e-05,9.99035e-05,9.99035e-05,9.99035e-05,9.99035e-05,9.99035e-05,9.99035e-05,"cluster_3",0.998901,"ABTC9124",NA,"SAMAR_42880",NA,"Ctenotus","hebetior","hebetior","Australia","30k E NOONBAH Station","QLD",-24.11667,143.4167,NA
"SAMAR_42903_Ct_asta",9.99034e-05,9.99034e-05,9.99034e-05,0.998901,9.99034e-05,9.99034e-05,9.99034e-05,9.99034e-05,9.99034e-05,9.99034e-05,9.99034e-05,9.99034e-05,"cluster_4",0.998901,"ABTC9149",NA,"SAMAR_42903",NA,"Ctenotus","astarte","astarte","Australia","24k W Birdsville turnoff","QLD",-25.56667,141.5167,NA
"SAMAR_42949_Ct_orie",9.99035e-05,9.99035e-05,9.99035e-05,0.998901,9.99035e-05,9.99035e-05,9.99035e-05,9.99035e-05,9.99035e-05,9.99035e-05,9.99035e-05,9.99035e-05,"cluster_4",0.998901,"ABTC9196",NA,"SAMAR_42949",NA,"Ctenotus","orientalis","astarte","Australia","9k W Betoota","QLD",-25.75,140.7167,NA
"SAMAR_42950_Ct_orie",9.99035e-05,9.99035e-05,9.99035e-05,0.998901,9.99035e-05,9.99035e-05,9.99035e-05,9.99035e-05,9.99035e-05,9.99035e-05,9.99035e-05,9.99035e-05,"cluster_4",0.998901,"ABTC9197",NA,"SAMAR_42950",NA,"Ctenotus","orientalis","astarte","Australia","Betoota","QLD",-25.68333,140.7333,NA
"SAMAR_43599_Ct_olym",9.99035e-05,9.99035e-05,9.99035e-05,9.99035e-05,9.99035e-05,9.99035e-05,0.998901,9.99035e-05,9.99035e-05,9.99035e-05,9.99035e-05,9.99035e-05,"cluster_7",0.998901,"ABTC57824","SAMAR43599","SAMAR_43599",NA,"Ctenotus","olympicus","olympicus","Australia","3k S Skylark Dam  Mount Eba Station","SA",-29.55,135.2833,NA
"SAMAR_43880_Ct_leae",9.99036e-05,9.99036e-05,9.99036e-05,9.99036e-05,9.99036e-05,9.99036e-05,9.99036e-05,0.998901,9.99036e-05,9.99036e-05,9.99036e-05,9.99036e-05,"cluster_8",0.998901,"ABTC22305",NA,"SAMAR_43880",NA,"Ctenotus","leae","leae","Australia","10.5k SSE Koonchera Waterhole","SA",-26.76167,139.53,NA
"SAMAR_44654_Ct_olym",9.99035e-05,9.99035e-05,9.99035e-05,9.99035e-05,9.99035e-05,9.99035e-05,0.998901,9.99035e-05,9.99035e-05,9.99035e-05,9.99035e-05,9.99035e-05,"cluster_7",0.998901,"ABTC57926","SAMAR44654","SAMAR_44654",NA,"Ctenotus","olympicus","olympicus","Australia","N side Arckaringa Creek","SA",-27.75,134.6222,NA
"SAMAR_45620_Ct_olym",9.99038e-05,9.99038e-05,9.99038e-05,9.99038e-05,9.99038e-05,9.99038e-05,0.998901,9.99038e-05,9.99038e-05,9.99038e-05,9.99038e-05,9.99038e-05,"cluster_7",0.998901,"ABTC58228","SAMAR45620","SAMAR_45620",NA,"Ctenotus","olympicus","olympicus","Australia","Dulkaninna Station","SA",-29.06667,138.4833,NA
"SAMAR_45966_Ct_leae",9.99035e-05,9.99035e-05,9.99035e-05,9.99035e-05,9.99035e-05,9.99035e-05,9.99035e-05,0.998901,9.99035e-05,9.99035e-05,9.99035e-05,9.99035e-05,"cluster_8",0.998901,"ABTC58273","SAMAR45966","SAMAR_45966",NA,"Ctenotus","leae","leae","Australia","25k NW Kunytjanu","SA",-26.48778,129.1736,NA
"SAMAR_46332_Ct_leae",9.99035e-05,9.99035e-05,9.99035e-05,9.99035e-05,9.99035e-05,9.99035e-05,9.99035e-05,0.998901,9.99035e-05,9.99035e-05,9.99035e-05,9.99035e-05,"cluster_8",0.998901,"ABTC35758","SAMAR46332","SAMAR_46332",NA,"Ctenotus","leae","leae","Australia","5.4k S Sheep Camp WH","SA",-29.78417,136.9228,NA
"SAMAR_48098_Ct_regi",9.99034e-05,9.99034e-05,9.99034e-05,9.99034e-05,9.99034e-05,9.99034e-05,9.99034e-05,9.99034e-05,9.99034e-05,0.998901,9.99034e-05,9.99034e-05,"cluster_10",0.998901,"ABTC58489","SAMAR48098","SAMAR_48098",NA,"Ctenotus","regius","regius","Australia","5k S Quinyambie Station","SA",-30.25778,140.9864,NA
"SAMAR_49444_Ct_orie",9.99034e-05,0.998901,9.99034e-05,9.99034e-05,9.99034e-05,9.99034e-05,9.99034e-05,9.99034e-05,9.99034e-05,9.99034e-05,9.99034e-05,9.99034e-05,"cluster_2",0.998901,"ABTC37641","SAMAR49444","SAMAR_49444",NA,"Ctenotus","orientalis","orientalis","Australia","6.1k NE Russell Camp","SA",-36.49111,140.37,NA
"SAMAR_51242_Ct_regi",9.99037e-05,9.99037e-05,9.99037e-05,9.99037e-05,9.99037e-05,9.99037e-05,9.99037e-05,9.99037e-05,9.99037e-05,0.998901,9.99037e-05,9.99037e-05,"cluster_10",0.998901,"ABTC42316","SAMAR51242","SAMAR_51242",NA,"Ctenotus","regius","regius","Australia","9.4k SSW Granite Downs HS","SA",-27.02028,133.47,NA
"SAMAR_51421_Ct_regi",9.99034e-05,9.99034e-05,9.99034e-05,9.99034e-05,9.99034e-05,9.99034e-05,9.99034e-05,9.99034e-05,9.99034e-05,0.998901,9.99034e-05,9.99034e-05,"cluster_10",0.998901,"ABTC38738","SAMAR51421","SAMAR_51421",NA,"Ctenotus","regius","regius","Australia","14.4k WNW Approdinna Attora Knolls","SA",-26.04806,137.4675,NA
"SAMAR_51431_Ct_leae",9.99035e-05,9.99035e-05,9.99035e-05,9.99035e-05,9.99035e-05,9.99035e-05,9.99035e-05,0.998901,9.99035e-05,9.99035e-05,9.99035e-05,9.99035e-05,"cluster_8",0.998901,"ABTC38765","SAMAR51431","SAMAR_51431",NA,"Ctenotus","leae","leae","Australia","6.4k WNW Approdinna Attora Knolls","SA",-26.04028,137.5553,NA
"SAMAR_52787_Ct_leae",9.99035e-05,9.99035e-05,9.99035e-05,9.99035e-05,9.99035e-05,9.99035e-05,9.99035e-05,0.998901,9.99035e-05,9.99035e-05,9.99035e-05,9.99035e-05,"cluster_8",0.998901,"ABTC73513","SAMAR52787","SAMAR_52787",NA,"Ctenotus","leae","leae","Australia","24.4k SSE Hamilton HS","SA",-26.90611,135.1961,NA
"SAMAR_52918_Ct_orie",9.99036e-05,0.998901,9.99036e-05,9.99036e-05,9.99036e-05,9.99036e-05,9.99036e-05,9.99036e-05,9.99036e-05,9.99036e-05,9.99036e-05,9.99036e-05,"cluster_2",0.998901,"ABTC74174","SAMAR52918","SAMAR_52918",NA,"Ctenotus","orientalis","orientalis","Australia","Gammon Ranges NP","SA",-30.42778,139.145,NA
"SAMAR_53967_Ct_regi",9.99125e-05,9.99125e-05,9.99125e-05,9.99125e-05,0.038996,9.99125e-05,9.99125e-05,9.99125e-05,9.99125e-05,0.960005,9.99125e-05,9.99125e-05,"cluster_10",0.960005,"ABTC72670","SAMAR53967","SAMAR_53967",NA,"Ctenotus","regius","regius","Australia","Finke River  crossing Stuart Highway","NT",-24.55528,133.2383,NA
"SAMAR_54164_Ct_regi",9.99036e-05,9.99036e-05,9.99036e-05,9.99036e-05,9.99036e-05,9.99036e-05,9.99036e-05,9.99036e-05,9.99036e-05,0.998901,9.99036e-05,9.99036e-05,"cluster_10",0.998901,"ABTC79533","SAMAR54164","SAMAR_54164",NA,"Ctenotus","regius","regius","Australia","6.6k SSE Kalamurina HS","SA",-27.77833,138.2758,NA
"SAMAR_54242_Ct_leae",9.99036e-05,9.99036e-05,9.99036e-05,9.99036e-05,9.99036e-05,9.99036e-05,9.99036e-05,0.998901,9.99036e-05,9.99036e-05,9.99036e-05,9.99036e-05,"cluster_8",0.998901,"ABTC79625","SAMAR54242","SAMAR_54242",NA,"Ctenotus","leae","leae","Australia","23.5k W Kannakaninna WH  Kalamurina Station","SA",-27.89306,137.7333,NA
"SAMAR_55677_Ct_hebe",9.99036e-05,9.99036e-05,0.998901,9.99036e-05,9.99036e-05,9.99036e-05,9.99036e-05,9.99036e-05,9.99036e-05,9.99036e-05,9.99036e-05,9.99036e-05,"cluster_3",0.998901,"ABTC76996","SAMAR55677","SAMAR_55677",NA,"Ctenotus","hebetior","hebetior","Australia","~40k S Torrens Creek on Torrens Creek-Aramac Road","QLD",-21.09167,145.0044,NA
"SAMAR_57181_Ct_regi",9.99034e-05,9.99034e-05,9.99034e-05,9.99034e-05,9.99034e-05,9.99034e-05,9.99034e-05,9.99034e-05,9.99034e-05,0.998901,9.99034e-05,9.99034e-05,"cluster_10",0.998901,"ABTC95326","SAMAR57181","SAMAR_57181",NA,"Ctenotus","regius","regius","Australia","17.1k E Vokes Hill Corner","SA",-28.56889,130.8564,NA
"SAMAR_57722_Ct_regi",9.99033e-05,9.99033e-05,9.99033e-05,9.99033e-05,9.99033e-05,9.99033e-05,9.99033e-05,9.99033e-05,9.99033e-05,0.998901,9.99033e-05,9.99033e-05,"cluster_10",0.998901,"ABTC95809","SAMAR57722","SAMAR_57722",NA,"Ctenotus","regius","regius","Australia","25k WNW Iron Duke","SA",-33.22222,136.8444,NA
"SAMAR_61391_Ct_orie",9.99035e-05,0.998901,9.99035e-05,9.99035e-05,9.99035e-05,9.99035e-05,9.99035e-05,9.99035e-05,9.99035e-05,9.99035e-05,9.99035e-05,9.99035e-05,"cluster_2",0.998901,"ABTC89366","SAMAR61391","SAMAR_61391",NA,"Ctenotus","orientalis","orientalis","Australia","19.6k WSW Charra","SA",-32.14722,133.1417,NA
"SAMAR_62424_Ct_orie",9.99125e-05,9.99125e-05,9.99125e-05,9.99125e-05,0.0125395,9.99125e-05,0.986461,9.99125e-05,9.99125e-05,9.99125e-05,9.99125e-05,9.99125e-05,"cluster_7",0.986461,"ABTC92246","SAMAR62424","SAMAR_62424",NA,"Ctenotus","orientalis","olympicus","Australia","17k NE Mount Penrhyn","SA",-29.29028,135.0911,NA
"SAMAR_66522_Ct_leae",9.99035e-05,9.99035e-05,9.99035e-05,9.99035e-05,9.99035e-05,9.99035e-05,9.99035e-05,0.998901,9.99035e-05,9.99035e-05,9.99035e-05,9.99035e-05,"cluster_8",0.998901,"ABTC125360","SAMAR66522","SAMAR_66522",NA,"Ctenotus","leae","leae","Australia","9k WSW Ediacara Homestead","SA",-30.4436,137.8297,NA
"SAMR_22246_Ct_leon",9.99035e-05,9.99035e-05,9.99035e-05,9.99035e-05,9.99035e-05,9.99035e-05,9.99035e-05,9.99035e-05,9.99035e-05,9.99035e-05,0.998901,9.99035e-05,"cluster_11",0.998901,"ABTC53612","SAM22246","SAMR_22246",NA,"Ctenotus","leonhardii","leonhardii","Australia","Kingoonya","SA",-30.917,135.316667,NA
"SAMR_36241_Ct_hele",9.99034e-05,9.99034e-05,9.99034e-05,9.99034e-05,9.99034e-05,9.99034e-05,9.99034e-05,9.99034e-05,9.99034e-05,0.998901,9.99034e-05,9.99034e-05,"cluster_10",0.998901,"ABTC56686","SAM36241","SAMR_36241","HELEA56686","Ctenotus","helenae","regius","Australia","Curtin Springs HS, Mulga Pk Rd","NT",-25.392,131.766667,NA
"SAMR_42708_Ct_pulc",9.99035e-05,9.99035e-05,9.99035e-05,9.99035e-05,9.99035e-05,0.998901,9.99035e-05,9.99035e-05,9.99035e-05,9.99035e-05,9.99035e-05,9.99035e-05,"cluster_6",0.998901,"ABTC08955","SAM42708","SAMR_42708","PULCA08955","Ctenotus","pulchellus","pulchellus","Australia","Mica Creek, near Mount Isa","QLD",-20.767,139.4833,NA
"SAMR_42772_Ct_pulc",9.99035e-05,9.99035e-05,9.99035e-05,9.99035e-05,9.99035e-05,0.998901,9.99035e-05,9.99035e-05,9.99035e-05,9.99035e-05,9.99035e-05,9.99035e-05,"cluster_6",0.998901,"ABTC09014","SAM42772","SAMR_42772","PULCA09014","Ctenotus","pulchellus","pulchellus","Australia","Glen Kyree Station, S Winton","QLD",-22.967,142.9,NA
"SAMR_43844_Ct_quat",9.99034e-05,9.99034e-05,9.99034e-05,9.99034e-05,9.99034e-05,9.99034e-05,9.99034e-05,9.99034e-05,9.99034e-05,9.99034e-05,9.99034e-05,0.998901,"cluster_12",0.998901,"ABTC59648","SAM43844","SAMR_43844","QUATA59648","Ctenotus","quattuordecimlineatus","quattuordecimlineatus","Australia","1-2K E SERPENTINE LKS ACCESS RD","SA",-28.5,129.033333,NA
"SAMR_44403_Ct_quat",9.99035e-05,9.99035e-05,9.99035e-05,9.99035e-05,9.99035e-05,9.99035e-05,9.99035e-05,9.99035e-05,9.99035e-05,9.99035e-05,9.99035e-05,0.998901,"cluster_12",0.998901,"ABTC41590","SAM44403","SAMR_44403","QUATA41590","Ctenotus","quattuordecimlineatus","quattuordecimlineatus","Australia","8.5k NW Mt Kintore","SA",-26.503,130.428611,NA
"SAMR_46944_Ct_leon",9.99035e-05,9.99035e-05,9.99035e-05,9.99035e-05,9.99035e-05,9.99035e-05,9.99035e-05,9.99035e-05,9.99035e-05,9.99035e-05,0.998901,9.99035e-05,"cluster_11",0.998901,"ABTC35989","SAM46944","SAMR_46944","LEONA35989","Ctenotus","leonhardii","leonhardii","Australia","1k WNW Top Camp Well","SA",-26.463,134.945833,NA
"SAMR_47236_Ct_regi",9.99126e-05,9.99126e-05,9.99126e-05,9.99126e-05,9.99126e-05,9.99126e-05,0.00534911,9.99126e-05,9.99126e-05,0.993652,9.99126e-05,9.99126e-05,"cluster_10",0.993652,"ABTC36337","SAM47236","SAMR_47236","REGIA36337","Ctenotus","regius","regius","Australia","6.3k SSW 99 Dam Anna Ck Stn","SA",-28.951,136.781944,NA
"SAMR_48330_Ct_regi",9.99036e-05,9.99036e-05,9.99036e-05,9.99036e-05,9.99036e-05,9.99036e-05,9.99036e-05,9.99036e-05,9.99036e-05,0.998901,9.99036e-05,9.99036e-05,"cluster_10",0.998901,"ABTC36611","SAM48330","SAMR_48330","REGIA36611","Ctenotus","regius","regius","Australia","1k SE Old Lake Dismal","SA",-32.053,140.927222,NA
"SAMR_48771_Ct_gree",9.99034e-05,9.99034e-05,9.99034e-05,9.99034e-05,9.99034e-05,9.99034e-05,9.99034e-05,9.99034e-05,0.998901,9.99034e-05,9.99034e-05,9.99034e-05,"cluster_9",0.998901,"ABTC42000","SAM48771","SAMR_48771","GREEA42000","Ctenotus","greeri","greeri","Australia","6.4k W Mt Lindsay","SA",-27.027,129.815,NA
"SAMR_48772_Ct_quat",9.99036e-05,9.99036e-05,9.99036e-05,9.99036e-05,9.99036e-05,9.99036e-05,9.99036e-05,9.99036e-05,9.99036e-05,9.99036e-05,9.99036e-05,0.998901,"cluster_12",0.998901,"ABTC42001","SAM48772","SAMR_48772","QUATA42001","Ctenotus","quattuordecimlineatus","quattuordecimlineatus","Australia","6.4k W Mt Lindsay SA","SA",-27.027,129.815,NA
"SAMR_48964_Ct_olym",9.99035e-05,9.99035e-05,9.99035e-05,9.99035e-05,9.99035e-05,9.99035e-05,0.998901,9.99035e-05,9.99035e-05,9.99035e-05,9.99035e-05,9.99035e-05,"cluster_7",0.998901,"ABTC37159","SAM48964","SAMR_48964","OLYMA37159","Ctenotus","olympicus","olympicus","Australia","Andamooka Stn","SA",-30.79,137.400556,NA
"SAMR_49090_Ct_leon",9.99035e-05,9.99035e-05,9.99035e-05,9.99035e-05,9.99035e-05,9.99035e-05,9.99035e-05,9.99035e-05,9.99035e-05,9.99035e-05,0.998901,9.99035e-05,"cluster_11",0.998901,"ABTC37349","SAM49090","SAMR_49090","LEONA37349","Ctenotus","leonhardii","leonhardii","Australia","3.1k E Candradecka Dam","SA",-27.208,140.894444,NA
"SAMR_51082_Ct_leon",9.99036e-05,9.99036e-05,9.99036e-05,9.99036e-05,9.99036e-05,9.99036e-05,9.99036e-05,9.99036e-05,9.99036e-05,9.99036e-05,0.998901,9.99036e-05,"cluster_11",0.998901,"ABTC13384","SAM51082","SAMR_51082","LEONA13384","Ctenotus","leonhardii","leonhardii","Australia","Tennant Creek Dump","NT",-19.65,134.183333,NA
"SAMR_51580_Ct_leon",9.99034e-05,9.99034e-05,9.99034e-05,9.99034e-05,9.99034e-05,9.99034e-05,9.99034e-05,9.99034e-05,9.99034e-05,9.99034e-05,0.998901,9.99034e-05,"cluster_11",0.998901,"ABTC42384","SAM51580","SAMR_51580","LEONA42384","Ctenotus","leonhardii","leonhardii","Australia","35k ESE Amata","SA",-26.277,131.460556,NA
"SAMR_55163_Ct_regi",9.99034e-05,9.99034e-05,9.99034e-05,9.99034e-05,9.99034e-05,9.99034e-05,9.99034e-05,9.99034e-05,9.99034e-05,0.998901,9.99034e-05,9.99034e-05,"cluster_10",0.998901,"ABTC74522","SAM55163","SAMR_55163","REGIA74522","Ctenotus","regius","regius","Australia","6.8k N Gluepot HS","SA",-33.704,140.125556,NA
"SAMR_55678_Ct_hebe",9.99124e-05,9.99124e-05,0.989076,9.99124e-05,9.99124e-05,9.99124e-05,9.99124e-05,9.99124e-05,9.99124e-05,9.99124e-05,0.00992468,9.99124e-05,"cluster_3",0.989076,"ABTC76997","SAM55678","SAMR_55678","HEBEA76997","Ctenotus","hebetior","hebetior","Australia","~ 40k S Torrens Ck on Torrens Ck-Aramac Rd","QLD",-21.092,145.004444,NA
"SAMR_58939_Ct_quat",9.99034e-05,9.99034e-05,9.99034e-05,9.99034e-05,9.99034e-05,9.99034e-05,9.99034e-05,9.99034e-05,9.99034e-05,9.99034e-05,9.99034e-05,0.998901,"cluster_12",0.998901,"ABTC80704","SAM58939","SAMR_58939","QUATA80704","Ctenotus","quattuordecimlineatus","quattuordecimlineatus","Australia","57.5 Km WNW Oak Valley","SA",-29.061,130.293889,NA
"SAMR_62088_Ct_quat",9.99125e-05,9.99125e-05,9.99125e-05,9.99125e-05,0.0411857,9.99125e-05,9.99125e-05,9.99125e-05,9.99125e-05,9.99125e-05,9.99125e-05,0.957815,"cluster_12",0.957815,"ABTC91459","SAM62088","SAMR_62088","QUATA91459","Ctenotus","quattuordecimlineatus","quattuordecimlineatus","Australia","12.2k N Pungkulpirri Waterhole, Walter James Range","WA",-24.5594,128.7097,NA
"SAMR_62131_Ct_leon",0.995913,9.99125e-05,9.99125e-05,9.99125e-05,9.99125e-05,9.99125e-05,9.99125e-05,9.99125e-05,9.99125e-05,9.99125e-05,0.00308832,9.99125e-05,"cluster_1",0.995913,"ABTC91664","SAM62131","SAMR_62131","LEONA91664","Ctenotus","leonhardii","leonhardii","Australia","18.3k ENE Blackstone","WA",-25.9308,128.4494,NA
"SAMR_65346_Ct_hebe",9.99037e-05,9.99037e-05,0.998901,9.99037e-05,9.99037e-05,9.99037e-05,9.99037e-05,9.99037e-05,9.99037e-05,9.99037e-05,9.99037e-05,9.99037e-05,"cluster_3",0.998901,"ABTC113678","SAM65346","SAMR_65346",NA,"Ctenotus","hebetior","hebetior","Australia","8.4k SW Two Rivers Homestead","QLD",-22.39056,139.9589,NA
"SAMR_65347_Ct_hebe",9.99037e-05,9.99037e-05,0.998901,9.99037e-05,9.99037e-05,9.99037e-05,9.99037e-05,9.99037e-05,9.99037e-05,9.99037e-05,9.99037e-05,9.99037e-05,"cluster_3",0.998901,"ABTC113758","SAM65347","SAMR_65347",NA,"Ctenotus","hebetior","hebetior","Australia","8.4k SW Two Rivers Homestead","QLD",-22.39056,139.9589,NA
"SAMR_65379_Ct_hebe",9.99036e-05,9.99036e-05,0.998901,9.99036e-05,9.99036e-05,9.99036e-05,9.99036e-05,9.99036e-05,9.99036e-05,9.99036e-05,9.99036e-05,9.99036e-05,"cluster_3",0.998901,"ABTC113832","SAM65379","SAMR_65379",NA,"Ctenotus","hebetior","hebetior","Australia","3.6k NNE Noonbah Homestead","QLD",-24.07556,143.1897,NA
"SAMR_65380_Ct_hebe",9.99034e-05,9.99034e-05,0.998901,9.99034e-05,9.99034e-05,9.99034e-05,9.99034e-05,9.99034e-05,9.99034e-05,9.99034e-05,9.99034e-05,9.99034e-05,"cluster_3",0.998901,"ABTC113849","SAM65380","SAMR_65380",NA,"Ctenotus","hebetior","hebetior","Australia","3.6k NNE Noonbah Homestead","QLD",-24.07556,143.1897,NA
"UMMZ_242606_Ct_aust",9.99034e-05,9.99034e-05,9.99034e-05,9.99034e-05,0.998901,9.99034e-05,9.99034e-05,9.99034e-05,9.99034e-05,9.99034e-05,9.99034e-05,9.99034e-05,"cluster_5",0.998901,"UMFS_20669",NA,"UMMZ_242606",NA,"Ctenotus","australis","australis","Australia","Tamala Station, Western Australia","WA",-26.6578,113.64763,NA
"UMMZ_242607_Ct_aust",9.99034e-05,9.99034e-05,9.99034e-05,9.99034e-05,0.998901,9.99034e-05,9.99034e-05,9.99034e-05,9.99034e-05,9.99034e-05,9.99034e-05,9.99034e-05,"cluster_5",0.998901,"UMFS_20670",NA,"UMMZ_242607",NA,"Ctenotus","australis","australis","Australia","Tamala Station, Western Australia","WA",-26.65758,113.64697,NA
"UMMZ_242645_Ct_quat",9.99035e-05,9.99035e-05,9.99035e-05,9.99035e-05,9.99035e-05,9.99035e-05,9.99035e-05,9.99035e-05,9.99035e-05,9.99035e-05,9.99035e-05,0.998901,"cluster_12",0.998901,"UMFS_20595",NA,"UMMZ_242645",NA,"Ctenotus","quattuordecimlineatus","quattuordecimlineatus","Australia","Carranya Station, Western Australia","WA",-19.2393,127.82636,NA
"UMMZ_242646_Ct_quat",9.99036e-05,9.99036e-05,9.99036e-05,9.99036e-05,9.99036e-05,9.99036e-05,9.99036e-05,9.99036e-05,9.99036e-05,9.99036e-05,9.99036e-05,0.998901,"cluster_12",0.998901,"UMFS_20611",NA,"UMMZ_242646",NA,"Ctenotus","quattuordecimlineatus","quattuordecimlineatus","Australia","Carranya Station, Western Australia","WA",-19.22818,127.84773,NA
"WAMR_112780_Ct_orie",9.99035e-05,0.998901,9.99035e-05,9.99035e-05,9.99035e-05,9.99035e-05,9.99035e-05,9.99035e-05,9.99035e-05,9.99035e-05,9.99035e-05,9.99035e-05,"cluster_2",0.998901,"WAM_R112780","WAM112780","WAMR_112780","ORIEW112780","Ctenotus","orientalis","orientalis","Australia","NOONDOONIA STATION","WA",-32.073,124.002778,NA
"WAMR_115114_Ct_aust",9.99034e-05,9.99034e-05,9.99034e-05,9.99034e-05,0.998901,9.99034e-05,9.99034e-05,9.99034e-05,9.99034e-05,9.99034e-05,9.99034e-05,9.99034e-05,"cluster_5",0.998901,"WAM_R115114","WAM115114","WAMR_115114","AUSTW115114","Ctenotus","australis","australis","Australia","KEN HEARST PARK","WA",-32.083,115.883333,NA
"WAMR_115119_Ct_aust",9.99034e-05,9.99034e-05,9.99034e-05,9.99034e-05,0.998901,9.99034e-05,9.99034e-05,9.99034e-05,9.99034e-05,9.99034e-05,9.99034e-05,9.99034e-05,"cluster_5",0.998901,"WAM_R115119","WAM115119","WAMR_115119","AUSTW115119","Ctenotus","australis","australis","Australia","BOLD PARK","WA",-31.933,115.770278,NA
"WAMR_117303_Ct_leon",0.998901,9.99038e-05,9.99038e-05,9.99038e-05,9.99038e-05,9.99038e-05,9.99038e-05,9.99038e-05,9.99038e-05,9.99038e-05,9.99038e-05,9.99038e-05,"cluster_1",0.998901,"WAM_R117303","WAM117303","WAMR_117303","LEONW117303","Ctenotus","leonhardii","leonhardii","Australia","YALGOO","WA",-28.35,116.683333,NA
"WAMR_119774_Ct_leon",0.978311,9.99123e-05,9.99123e-05,9.99123e-05,9.99123e-05,9.99123e-05,9.99123e-05,9.99123e-05,9.99123e-05,9.99123e-05,0.0206898,9.99123e-05,"cluster_1",0.978311,"WAM_R119774","WAM119774","WAMR_119774","LEONW119774","Ctenotus","leonhardii","leonhardii","Australia","WARBURTON","WA",-26.133,126.583333,NA
"WAMR_127432_Ct_quat",9.99035e-05,9.99035e-05,9.99035e-05,9.99035e-05,9.99035e-05,9.99035e-05,9.99035e-05,9.99035e-05,9.99035e-05,9.99035e-05,9.99035e-05,0.998901,"cluster_12",0.998901,"WAM_R127432","WAM127432","WAMR_127432","QUATW127432","Ctenotus","quattuordecimlineatus","quattuordecimlineatus","Australia","JOANNA SPRINGS","WA",-20.083,123.95,NA
"WAMR_129973_Ct_leon",0.998901,9.99036e-05,9.99036e-05,9.99036e-05,9.99036e-05,9.99036e-05,9.99036e-05,9.99036e-05,9.99036e-05,9.99036e-05,9.99036e-05,9.99036e-05,"cluster_1",0.998901,"WAM_R129973","WAM129973","WAMR_129973","LEONW129973","Ctenotus","leonhardii","leonhardii","Australia","MOUNT JOEL","WA",-27.217,121.05,NA
"WAMR_131785_Ct_leon",0.998901,9.99034e-05,9.99034e-05,9.99034e-05,9.99034e-05,9.99034e-05,9.99034e-05,9.99034e-05,9.99034e-05,9.99034e-05,9.99034e-05,9.99034e-05,"cluster_1",0.998901,"WAM_R131785","WAM131785","WAMR_131785","LEONW131785","Ctenotus","leonhardii","leonhardii","Australia","BUTCHERS TRACK","WA",-26.617,115.533333,NA
"WAMR_139532_Ct_iape",9.99035e-05,9.99035e-05,9.99035e-05,9.99035e-05,9.99035e-05,9.99035e-05,9.99035e-05,9.99035e-05,9.99035e-05,9.99035e-05,9.99035e-05,0.998901,"cluster_12",0.998901,"WAM_R139532","WAM139532","WAMR_139532","IAPEW139532","Ctenotus","iapetus","iapetus","Australia","GIRALIA","WA",-22.753,114.513889,NA
"WAMR_144639_Ct_leon",0.998901,9.99034e-05,9.99034e-05,9.99034e-05,9.99034e-05,9.99034e-05,9.99034e-05,9.99034e-05,9.99034e-05,9.99034e-05,9.99034e-05,9.99034e-05,"cluster_1",0.998901,"WAM_R144639","WAM144639","WAMR_144639","LEONW144639","Ctenotus","leonhardii","leonhardii","Australia","MENZIES","WA",-29.796,121.074722,NA
"WAMR_166448_Ct_leon",0.924564,9.99213e-05,9.99213e-05,9.99213e-05,0.0195219,9.99213e-05,9.99213e-05,9.99213e-05,0.0550147,9.99213e-05,9.99213e-05,9.99213e-05,"cluster_1",0.924564,"ABTC91550","WAM166448","WAMR_166448","LEONA91550","Ctenotus","leonhardii","leonhardii","Australia","1k S Kutjuntari Rockhole","WA",-24.9001,128.7697,NA
