"ID","cluster_1","cluster_2","cluster_3","cluster_4","cluster_5","cluster_6","cluster_7","cluster_8","cluster_assign","coeff","TISSUE_ID","REGO","VOUCHER","ALTERNATIVE_ID","GENUS","SPECIES","UPDATED_SP","REGION","LOCATION","STATE","LAT","LON","VoucherNotes"
"CUMV_14408_Ct_broo",9.994e-05,9.994e-05,0.9993,9.994e-05,9.994e-05,9.994e-05,9.994e-05,9.994e-05,"cluster_3",0.9993,"DLR0492","CU14408","CUMV_14408","BROODLR0492","Ctenotus","brooksi","brooksi","Australia","Yamarna Stn, Western Australia","WA",-28.133,123.8667,NA
"CUMV_14409_Ct_broo",9.994e-05,9.994e-05,0.9993,9.994e-05,9.994e-05,9.994e-05,9.994e-05,9.994e-05,"cluster_3",0.9993,"DLR0455","CU14409","CUMV_14409",NA,"Ctenotus","brooksi","brooksi","Australia","Yamarna Stn, Western Australia","WA",-28.133,123.8667,NA
"CUMV_14411_Ct_broo",9.994e-05,9.994e-05,0.9993,9.994e-05,9.994e-05,9.994e-05,9.994e-05,9.994e-05,"cluster_3",0.9993,"DLR0503","CU14411","CUMV_14411","BROODLR0503","Ctenotus","brooksi","brooksi","Australia","Yamarna Stn, Western Australia","WA",-28.133,123.8667,NA
"CUMV_14412_Ct_broo",9.994e-05,9.994e-05,0.9993,9.994e-05,9.994e-05,9.994e-05,9.994e-05,9.994e-05,"cluster_3",0.9993,"DLR0510","CU14412","CUMV_14412",NA,"Ctenotus","brooksi","brooksi","Australia","Yamarna Stn, Western Australia","WA",-28.133,123.8667,NA
"CUMV_14700_Ct_scho",9.994e-05,9.994e-05,9.994e-05,9.994e-05,0.9993,9.994e-05,9.994e-05,9.994e-05,"cluster_5",0.9993,"DLR0370","CU14700","CUMV_14700","SCHODLR0370","Ctenotus","schomburgkii","schomburgkii","Australia","Lake Mason Stn, Western Australia","WA",-27.586,119.5208,NA
"NA_ABTC10487_Ct_broo",9.994e-05,9.994e-05,0.9993,9.994e-05,9.994e-05,9.994e-05,9.994e-05,9.994e-05,"cluster_3",0.9993,"ABTC10487",NA,"no_voucher",NA,"Ctenotus","brooksi","brooksi","Australia","Officer Basin","WA",-29.96667,123.7667,NA
"NA_ABTC113798_Ct_scho",9.994e-05,9.994e-05,9.994e-05,9.994e-05,9.994e-05,9.994e-05,0.9993,9.994e-05,"cluster_7",0.9993,"ABTC113798",NA,"no_voucher",NA,"Ctenotus","schomburgkii","schomburgkii","Australia","3.4k NNE Noonbah Homestead","QLD",-24.08083,143.1983,NA
"NA_ABTC113879_Ct_stra",9.994e-05,9.994e-05,9.994e-05,0.9993,9.994e-05,9.994e-05,9.994e-05,9.994e-05,"cluster_4",0.9993,"ABTC113879",NA,"no_voucher",NA,"Ctenotus","strauchii","strauchii","Australia","4.9k NW old Lochern Homestead site","QLD",-24.09389,143.3081,NA
"NA_ABTC113898_Ct_stra",9.994e-05,0.9993,9.994e-05,9.994e-05,9.994e-05,9.994e-05,9.994e-05,9.994e-05,"cluster_2",0.9993,"ABTC113898",NA,"no_voucher",NA,"Ctenotus","strauchii","strauchii","Australia","5.3k SW Ballards tank, Plevna Downs","QLD",-26.76278,142.5239,NA
"NA_ABTC12607_Ct_broo",9.994e-05,9.994e-05,0.9993,9.994e-05,9.994e-05,9.994e-05,9.994e-05,9.994e-05,"cluster_3",0.9993,"ABTC12607",NA,"no_voucher",NA,"Ctenotus","brooksi","brooksi","Australia","28k S Kings Creek HS","NT",-24.66667,131.8333,NA
"NA_ABTC12623_Ct_scho",9.994e-05,9.994e-05,9.994e-05,9.994e-05,9.994e-05,9.994e-05,0.9993,9.994e-05,"cluster_7",0.9993,"ABTC12623",NA,"no_voucher",NA,"Ctenotus","schomburgkii","schomburgkii","Australia","Kings Creek Station","NT",-24.43333,131.8167,NA
"NA_ABTC89250_Ct_broo",9.994e-05,9.994e-05,9.994e-05,9.994e-05,9.994e-05,0.9993,9.994e-05,9.994e-05,"cluster_6",0.9993,"ABTC89250",NA,"no_voucher",NA,"Ctenotus","brooksi","euclae","Australia","Munyaroo CP","SA",-33.37139,137.1769,NA
"NA_DLR0549_Ct_broo",9.994e-05,9.994e-05,0.9993,9.994e-05,9.994e-05,9.994e-05,9.994e-05,9.994e-05,"cluster_3",0.9993,"DLR0549",NA,"no_voucher",NA,"Ctenotus","brooksi","brooksi","Australia","Yamarna Stn, Western Australia","WA",-28.133,123.8667,NA
"NTMR_14947_Ct_calu",9.994e-05,9.994e-05,9.994e-05,9.994e-05,9.994e-05,9.994e-05,9.994e-05,0.9993,"cluster_8",0.9993,"ABTC14658",NA,"NTMR_14947",NA,"Ctenotus","calurus","calurus","Australia","Sangster's Bore  Tanami desert","NT",-20.867,130.267,NA
"QMJ_74401_Ct_zebr",0.9993,9.994e-05,9.994e-05,9.994e-05,9.994e-05,9.994e-05,9.994e-05,9.994e-05,"cluster_1",0.9993,"ABTC72938","QMJ74401","QMJ_74401",NA,"Ctenotus","zebrilla","zebrilla","Australia","Porcupine Creek  27k N Porcupine Creek campground","QLD",-20.16389,144.5183,NA
"SAMAR_24578_Ct_scho",9.994e-05,9.994e-05,9.994e-05,9.994e-05,9.994e-05,9.994e-05,0.9993,9.994e-05,"cluster_7",0.9993,"ABTC53659","SAMAR24578","SAMAR_24578",NA,"Ctenotus","schomburgkii","schomburgkii","Australia","7k N King Lookout","SA",-26.88333,140.6,NA
"SAMAR_25378_Ct_scho",9.994e-05,9.994e-05,9.994e-05,9.994e-05,0.9993,9.994e-05,9.994e-05,9.994e-05,"cluster_5",0.9993,"ABTC40577","SAMAR25378","SAMAR_25378",NA,"Ctenotus","schomburgkii","schomburgkii","Australia","Ifould Camp  no.5 Colona","SA",-30.8,132.1167,NA
"SAMAR_25688_Ct_eucl",9.994e-05,9.994e-05,9.994e-05,9.994e-05,9.994e-05,0.9993,9.994e-05,9.994e-05,"cluster_6",0.9993,"ABTC40740","SAMAR25688","SAMAR_25688",NA,"Ctenotus","euclae","euclae","Australia","near Yalata Roadhouse","SA",-31.49222,131.2667,NA
"SAMAR_26237_Ct_broo",9.994e-05,9.994e-05,0.9993,9.994e-05,9.994e-05,9.994e-05,9.994e-05,9.994e-05,"cluster_3",0.9993,"ABTC53712","SAMAR26237","SAMAR_26237",NA,"Ctenotus","brooksi","brooksi","Australia","10k N Lake Phillipson","SA",-29.35833,134.4667,NA
"SAMAR_26265_Ct_scho",9.994e-05,9.994e-05,9.994e-05,9.994e-05,0.9993,9.994e-05,9.994e-05,9.994e-05,"cluster_5",0.9993,"ABTC40621","SAMAR26265","SAMAR_26265",NA,"Ctenotus","schomburgkii","schomburgkii","Australia","near Border Village","SA",-31.61389,129.1056,NA
"SAMAR_29939_Ct_broo",9.994e-05,9.994e-05,0.9993,9.994e-05,9.994e-05,9.994e-05,9.994e-05,9.994e-05,"cluster_3",0.9993,"ABTC4259",NA,"SAMAR_29939",NA,"Ctenotus","brooksi","brooksi","Australia","Curtin Springs","NT",-25.5,131.8167,NA
"SAMAR_32029_Ct_broo",9.994e-05,9.994e-05,0.9993,9.994e-05,9.994e-05,9.994e-05,9.994e-05,9.994e-05,"cluster_3",0.9993,"ABTC64116","SAMAR32029","SAMAR_32029",NA,"Ctenotus","brooksi","brooksi","Australia","Immarna Siding","SA",-30.58556,132.2392,NA
"SAMAR_32255_Ct_scho",9.994e-05,9.994e-05,9.994e-05,9.994e-05,0.9993,9.994e-05,9.994e-05,9.994e-05,"cluster_5",0.9993,"ABTC64297","SAMAR32255","SAMAR_32255",NA,"Ctenotus","schomburgkii","schomburgkii","Australia","39k SW Halinor Lake","SA",-29.44528,130.1744,NA
"SAMAR_34780_Ct_stra",9.994e-05,0.9993,9.994e-05,9.994e-05,9.994e-05,9.994e-05,9.994e-05,9.994e-05,"cluster_2",0.9993,"ABTC16689",NA,"SAMAR_34780",NA,"Ctenotus","strauchii","strauchii","Australia","Lake Eyre","SA",-31.63333,137.6167,NA
"SAMAR_35050_Ct_scho",9.994e-05,9.994e-05,9.994e-05,9.994e-05,9.994e-05,9.994e-05,0.9993,9.994e-05,"cluster_7",0.9993,"ABTC24010",NA,"SAMAR_35050",NA,"Ctenotus","schomburgkii","schomburgkii","Australia","70k E Moomba","SA",-28.28333,140.9,NA
"SAMAR_36034_Ct_taen",9.994e-05,9.994e-05,9.994e-05,9.994e-05,9.994e-05,0.9993,9.994e-05,9.994e-05,"cluster_6",0.9993,"ABTC17040",NA,"SAMAR_36034",NA,"Ctenotus","taeniatus","taeniatus","Australia","Lake Palankarinna","SA",-28.75,138.4667,NA
"SAMAR_36575_Ct_eucl",9.994e-05,9.994e-05,9.994e-05,9.994e-05,9.994e-05,0.9993,9.994e-05,9.994e-05,"cluster_6",0.9993,"ABTC56794","SAMAR36575","SAMAR_36575",NA,"Ctenotus","euclae","euclae","Australia","7.5k NNW Courtabie","SA",-33.175,134.825,NA
"SAMAR_36883_Ct_stra",9.994e-05,9.994e-05,9.994e-05,0.9993,9.994e-05,9.994e-05,9.994e-05,9.994e-05,"cluster_4",0.9993,"ABTC56894","SAMAR36883","SAMAR_36883",NA,"Ctenotus","strauchii","strauchii","Australia","110k W Thargomindah","QLD",-27.71667,142.8,NA
"SAMAR_37073_Ct_scho",9.994e-05,9.994e-05,9.994e-05,9.994e-05,9.994e-05,9.994e-05,0.9993,9.994e-05,"cluster_7",0.9993,"ABTC17226",NA,"SAMAR_37073",NA,"Ctenotus","schomburgkii","schomburgkii","Australia","Brookfield CP","SA",-34.31667,139.5,NA
"SAMAR_37916_Ct_stra",9.994e-05,0.9993,9.994e-05,9.994e-05,9.994e-05,9.994e-05,9.994e-05,9.994e-05,"cluster_2",0.9993,"ABTC57004","SAMAR37916","SAMAR_37916",NA,"Ctenotus","strauchii","strauchii","Australia","6k W Bopeechee near Lake Eyre South","SA",-29.55833,137.325,NA
"SAMAR_39563_Ct_taen",9.994e-05,9.994e-05,9.994e-05,9.994e-05,9.994e-05,0.9993,9.994e-05,9.994e-05,"cluster_6",0.9993,"ABTC34360","SAMAR39563","SAMAR_39563",NA,"Ctenotus","taeniatus","taeniatus","Australia","14k SE Baan Hill","SA",-35.62389,140.4789,NA
"SAMAR_41321_Ct_scho",9.994e-05,9.994e-05,9.994e-05,9.994e-05,9.994e-05,9.994e-05,0.9993,9.994e-05,"cluster_7",0.9993,"ABTC39983","SAMAR41321","SAMAR_41321",NA,"Ctenotus","schomburgkii","schomburgkii","Australia","Oakbank Station","SA",-33.12778,140.6444,NA
"SAMAR_41349_Ct_stra",9.994e-05,0.9993,9.994e-05,9.994e-05,9.994e-05,9.994e-05,9.994e-05,9.994e-05,"cluster_2",0.9993,"ABTC40026","SAMAR41349","SAMAR_41349",NA,"Ctenotus","strauchii","strauchii","Australia","Mustering Dam","SA",-33.60278,139.6278,NA
"SAMAR_41903_Ct_scho",9.994e-05,9.994e-05,9.994e-05,9.994e-05,9.994e-05,9.994e-05,0.9993,9.994e-05,"cluster_7",0.9993,"ABTC33841","SAMAR41903","SAMAR_41903",NA,"Ctenotus","schomburgkii","schomburgkii","Australia","Blue Hills Bore","SA",-27.13083,132.8636,NA
"SAMAR_42343_Ct_stra",9.994e-05,0.9993,9.994e-05,9.994e-05,9.994e-05,9.994e-05,9.994e-05,9.994e-05,"cluster_2",0.9993,"ABTC57669","SAMAR42343","SAMAR_42343",NA,"Ctenotus","strauchii","strauchii","Australia","4.5k W Johnsons Dam on Station track","SA",-30.56667,139.35,NA
"SAMAR_42658_Ct_taen",9.994e-05,9.994e-05,9.994e-05,9.994e-05,9.994e-05,0.9993,9.994e-05,9.994e-05,"cluster_6",0.9993,"ABTC8918",NA,"SAMAR_42658",NA,"Ctenotus","taeniatus","taeniatus","Australia","Cacoory Ruins","QLD",-25.23333,139.55,NA
"SAMAR_42743_Ct_stra",9.994e-05,9.994e-05,9.994e-05,0.9993,9.994e-05,9.994e-05,9.994e-05,9.994e-05,"cluster_4",0.9993,"ABTC8985",NA,"SAMAR_42743",NA,"Ctenotus","strauchii","strauchii","Australia","84k N Muttaburra","QLD",-21.91667,144.4167,NA
"SAMAR_42800_Ct_stra",9.994e-05,0.9993,9.994e-05,9.994e-05,9.994e-05,9.994e-05,9.994e-05,9.994e-05,"cluster_2",0.9993,"ABTC9042",NA,"SAMAR_42800",NA,"Ctenotus","strauchii","strauchii","Australia","22k W Diamantina Station","QLD",-23.66667,140.9667,NA
"SAMAR_42874_Ct_stra",9.994e-05,9.994e-05,9.994e-05,0.9993,9.994e-05,9.994e-05,9.994e-05,9.994e-05,"cluster_4",0.9993,"ABTC9119",NA,"SAMAR_42874",NA,"Ctenotus","strauchii","strauchii","Australia","30k E NOONBAH Station","QLD",-24.11667,143.4167,NA
"SAMAR_42955_Ct_stra",9.994e-05,0.9993,9.994e-05,9.994e-05,9.994e-05,9.994e-05,9.994e-05,9.994e-05,"cluster_2",0.9993,"ABTC9202",NA,"SAMAR_42955",NA,"Ctenotus","strauchii","strauchii","Australia","Betoota","QLD",-25.68333,140.7333,NA
"SAMAR_45381_Ct_calu",9.994e-05,9.994e-05,9.994e-05,9.994e-05,9.994e-05,9.994e-05,9.994e-05,0.9993,"cluster_8",0.9993,"ABTC58161","SAMAR45381","SAMAR_45381",NA,"Ctenotus","calurus","calurus","Australia","21k E Maryinna Hill","SA",-26.95333,131.4353,NA
"SAMAR_45516_Ct_stra",9.994e-05,9.994e-05,9.994e-05,0.9993,9.994e-05,9.994e-05,9.994e-05,9.994e-05,"cluster_4",0.9993,"ABTC58210","SAMAR45516","SAMAR_45516",NA,"Ctenotus","strauchii","strauchii","Australia","Mootwingee NP","NSW",-31.06667,142.55,NA
"SAMAR_45530_Ct_scho",9.994e-05,9.994e-05,9.994e-05,9.994e-05,0.9993,9.994e-05,9.994e-05,9.994e-05,"cluster_5",0.9993,"ABTC35116","SAMAR45530","SAMAR_45530",NA,"Ctenotus","schomburgkii","schomburgkii","Australia","17k NNE Inila Rockwater","SA",-31.62361,133.4514,NA
"SAMAR_45963_Ct_broo",9.994e-05,9.994e-05,0.9993,9.994e-05,9.994e-05,9.994e-05,9.994e-05,9.994e-05,"cluster_3",0.9993,"ABTC58270","SAMAR45963","SAMAR_45963",NA,"Ctenotus","brooksi","brooksi","Australia","25k NW Kunytjanu","SA",-26.48778,129.1736,NA
"SAMAR_46104_Ct_scho",9.994e-05,9.994e-05,9.994e-05,9.994e-05,9.994e-05,9.994e-05,0.9993,9.994e-05,"cluster_7",0.9993,"ABTC41767","SAMAR46104","SAMAR_46104",NA,"Ctenotus","schomburgkii","schomburgkii","Australia","21k ENE Pipalyatjara","SA",-26.11806,129.3714,NA
"SAMAR_46452_Ct_scho",9.994e-05,9.994e-05,9.994e-05,9.994e-05,9.994e-05,9.994e-05,0.9993,9.994e-05,"cluster_7",0.9993,"ABTC35608","SAMAR46452","SAMAR_46452",NA,"Ctenotus","schomburgkii","schomburgkii","Australia","3.3k NNE Strangways Springs","SA",-29.13694,136.5664,NA
"SAMAR_47257_Ct_taen",9.994e-05,9.994e-05,9.994e-05,9.994e-05,9.994e-05,0.9993,9.994e-05,9.994e-05,"cluster_6",0.9993,"ABTC36350","SAMAR47257","SAMAR_47257",NA,"Ctenotus","taeniatus","taeniatus","Australia","9k NNW Four Hills Trig  Peake Station","SA",-28.4325,136.4533,NA
"SAMAR_48325_Ct_scho",9.994e-05,9.994e-05,9.994e-05,9.994e-05,9.994e-05,9.994e-05,0.9993,9.994e-05,"cluster_7",0.9993,"ABTC36606","SAMAR48325","SAMAR_48325",NA,"Ctenotus","schomburgkii","schomburgkii","Australia","8k NE Wompinie","SA",-32.01417,140.8422,NA
"SAMAR_48354_Ct_scho",9.994e-05,9.994e-05,9.994e-05,9.994e-05,9.994e-05,9.994e-05,0.9993,9.994e-05,"cluster_7",0.9993,"ABTC36652","SAMAR48354","SAMAR_48354",NA,"Ctenotus","schomburgkii","schomburgkii","Australia","3k S Starvation Dam","SA",-30.46306,140.9447,NA
"SAMAR_48386_Ct_stra",9.994e-05,0.9993,9.994e-05,9.994e-05,9.994e-05,9.994e-05,9.994e-05,9.994e-05,"cluster_2",0.9993,"ABTC36859","SAMAR48386","SAMAR_48386",NA,"Ctenotus","strauchii","strauchii","Australia","Mount Barry Station","SA",-28.21056,134.6414,NA
"SAMAR_48699_Ct_calu",9.994e-05,9.994e-05,9.994e-05,9.994e-05,9.994e-05,9.994e-05,9.994e-05,0.9993,"cluster_8",0.9993,"ABTC42024","SAMAR48699","SAMAR_48699",NA,"Ctenotus","calurus","calurus","Australia","1.8k NNW Mt Lindsay","SA",-27.01417,129.87,NA
"SAMAR_48785_Ct_calu",9.994e-05,9.994e-05,9.994e-05,9.994e-05,9.994e-05,9.994e-05,9.994e-05,0.9993,"cluster_8",0.9993,"ABTC42067","SAMAR48785","SAMAR_48785",NA,"Ctenotus","calurus","calurus","Australia","6.6k WNW Mt Lindsay","SA",-27.06083,129.8239,NA
"SAMAR_49141_Ct_scho",9.994e-05,9.994e-05,9.994e-05,9.994e-05,9.994e-05,9.994e-05,0.9993,9.994e-05,"cluster_7",0.9993,"ABTC58605","SAMAR49141","SAMAR_49141",NA,"Ctenotus","schomburgkii","schomburgkii","Australia","below Iron Knight South","SA",-33.22194,137.1086,NA
"SAMAR_50062_Ct_scho",9.994e-05,9.994e-05,9.994e-05,9.994e-05,9.994e-05,9.994e-05,0.9993,9.994e-05,"cluster_7",0.9993,"ABTC38011","SAMAR50062","SAMAR_50062",NA,"Ctenotus","schomburgkii","schomburgkii","Australia","74k E Purni Bore","SA",-26.32472,136.8394,NA
"SAMAR_50902_Ct_stra",9.994e-05,0.9993,9.994e-05,9.994e-05,9.994e-05,9.994e-05,9.994e-05,9.994e-05,"cluster_2",0.9993,"ABTC38305","SAMAR50902","SAMAR_50902",NA,"Ctenotus","strauchii","strauchii","Australia","18.9k NNW Murda Hill","SA",-26.78667,138.3025,NA
"SAMAR_55709_Ct_zebr",0.9993,9.994e-05,9.994e-05,9.994e-05,9.994e-05,9.994e-05,9.994e-05,9.994e-05,"cluster_1",0.9993,"ABTC77031","SAMAR55709","SAMAR_55709",NA,"Ctenotus","zebrilla","zebrilla","Australia","Kennedy Developmental Road turnoff to Porcupine Gorge","QLD",-20.38056,144.4222,NA
"SAMAR_55848_Ct_stra",0.9993,9.994e-05,9.994e-05,9.994e-05,9.994e-05,9.994e-05,9.994e-05,9.994e-05,"cluster_1",0.9993,"ABTC77169","SAMAR55848","SAMAR_55848",NA,"Ctenotus","strauchii","zebrilla","Australia","Breakneck Gully 45k NW Charters Towers","QLD",-19.8175,146.0314,NA
"SAMAR_56458_Ct_broo",9.994e-05,9.994e-05,0.9993,9.994e-05,9.994e-05,9.994e-05,9.994e-05,9.994e-05,"cluster_3",0.9993,"ABTC79860","SAMAR56458","SAMAR_56458",NA,"Ctenotus","brooksi","brooksi","Australia","6.1k W Mount Hoare","SA",-27.05639,129.6389,NA
"SAMAR_56672_Ct_broo",9.994e-05,9.994e-05,9.994e-05,9.994e-05,9.994e-05,0.9993,9.994e-05,9.994e-05,"cluster_6",0.9993,"ABTC95959","SAMAR56672","SAMAR_56672",NA,"Ctenotus","brooksi","euclae","Australia","5.1k ENE Corrobinnie Hill","SA",-32.96417,135.7872,NA
"SAMAR_57213_Ct_calu",9.994e-05,9.994e-05,9.994e-05,9.994e-05,9.994e-05,9.994e-05,9.994e-05,0.9993,"cluster_8",0.9993,"ABTC95336","SAMAR57213","SAMAR_57213",NA,"Ctenotus","calurus","calurus","Australia","23.9k E Vokes Hill Corner","SA",-28.57111,130.9253,NA
"SAMAR_58943_Ct_broo",9.994e-05,9.994e-05,0.9993,9.994e-05,9.994e-05,9.994e-05,9.994e-05,9.994e-05,"cluster_3",0.9993,"ABTC80716","SAMAR58943","SAMAR_58943",NA,"Ctenotus","brooksi","brooksi","Australia","57.6k WNW Oak Valley","SA",-29.08639,130.2689,NA
"SAMAR_59192_Ct_scho",9.994e-05,9.994e-05,9.994e-05,9.994e-05,9.994e-05,9.994e-05,0.9993,9.994e-05,"cluster_7",0.9993,"ABTC93498","SAMAR59192","SAMAR_59192",NA,"Ctenotus","schomburgkii","schomburgkii","Australia","11.2k NNW Mundoora","SA",-33.49333,138.0769,NA
"SAMAR_60340_Ct_scho",9.994e-05,9.994e-05,9.994e-05,9.994e-05,9.994e-05,9.994e-05,0.9993,9.994e-05,"cluster_7",0.9993,"ABTC87763","SAMAR60340","SAMAR_60340",NA,"Ctenotus","schomburgkii","schomburgkii","Australia","152.7k W Oak Valley","SA",-29.54111,129.1044,NA
"SAMAR_61390_Ct_eucl",9.994e-05,9.994e-05,9.994e-05,9.994e-05,9.994e-05,0.9993,9.994e-05,9.994e-05,"cluster_6",0.9993,"ABTC89365","SAMAR61390","SAMAR_61390",NA,"Ctenotus","euclae","euclae","Australia","19.6k WSW Charra","SA",-32.14722,133.1417,NA
"SAMAR_62561_Ct_scho",9.994e-05,9.994e-05,9.994e-05,9.994e-05,9.994e-05,9.994e-05,0.9993,9.994e-05,"cluster_7",0.9993,"ABTC96992","SAMAR62561","SAMAR_62561",NA,"Ctenotus","schomburgkii","schomburgkii","Australia","26.4k SE Blowout Trig","SA",-29.87778,133.6169,NA
"SAMAR_65908_Ct_broo",9.994e-05,9.994e-05,0.9993,9.994e-05,9.994e-05,9.994e-05,9.994e-05,9.994e-05,"cluster_3",0.9993,"ABTC112657","SAMAR65908","SAMAR_65908",NA,"Ctenotus","brooksi","brooksi","Australia","Rainbow Valley  11.7k E Mt Grevillea","NT",-24.33389,133.6353,NA
"SAMR_35905_Ct_taen",9.994e-05,9.994e-05,9.994e-05,9.994e-05,9.994e-05,0.9993,9.994e-05,9.994e-05,"cluster_6",0.9993,"ABTC00507","SAM35905","SAMR_35905","TAENA00507","Ctenotus","taeniatus","taeniatus","Australia","2k W Purni Bore campsite","SA",-26.283,136.083333,NA
"SAMR_42487_Ct_stra",9.994e-05,0.9993,9.994e-05,9.994e-05,9.994e-05,9.994e-05,9.994e-05,9.994e-05,"cluster_2",0.9993,"ABTC34061","SAM42487","SAMR_42487","STRAA34061","Ctenotus","strauchii","strauchii","Australia","1.5k E Wire Creek Bore","SA",-27.257,135.505,NA
"SAMR_42881_Ct_stra",9.994e-05,9.994e-05,9.994e-05,0.9993,9.994e-05,9.994e-05,9.994e-05,9.994e-05,"cluster_4",0.9993,"ABTC09125","SAM42881","SAMR_42881","STRAA09125","Ctenotus","strauchii","strauchii","Australia","30k E NOONBAH Station","QLD",-24.117,143.4167,NA
"SAMR_44903_Ct_stra",9.994e-05,0.9993,9.994e-05,9.994e-05,9.994e-05,9.994e-05,9.994e-05,9.994e-05,"cluster_2",0.9993,"ABTC34809","SAM44903","SAMR_44903","STRAA34809","Ctenotus","strauchii","strauchii","Australia","5k ENE Dulkaninna","SA",-29,138.505556,NA
"SAMR_44934_Ct_taen",9.994e-05,9.994e-05,9.994e-05,9.994e-05,9.994e-05,0.9993,9.994e-05,9.994e-05,"cluster_6",0.9993,"ABTC34819","SAM44934","SAMR_44934","TAENA34819","Ctenotus","taeniatus","taeniatus","Australia","10k SE Dalarinna Hill","SA",-29.758,138.667778,NA
"SAMR_44955_Ct_stra",9.994e-05,0.9993,9.994e-05,9.994e-05,9.994e-05,9.994e-05,9.994e-05,9.994e-05,"cluster_2",0.9993,"ABTC34858","SAM44955","SAMR_44955","STRAA34858","Ctenotus","strauchii","strauchii","Australia","1.5k SW Reedy Springs","SA",-29.545,139.4117,NA
"SAMR_45029_Ct_stra",9.994e-05,0.9993,9.994e-05,9.994e-05,9.994e-05,9.994e-05,9.994e-05,9.994e-05,"cluster_2",0.9993,"ABTC34967","SAM45029","SAMR_45029",NA,"Ctenotus","strauchii","strauchii","Australia","1.9k E Hislopp Dam","SA",-26.385,140.345,NA
"SAMR_46072_Ct_eucl",9.994e-05,9.994e-05,9.994e-05,9.994e-05,9.994e-05,0.998688,0.000712473,9.994e-05,"cluster_6",0.998688,"ABTC58330","SAM46072","SAMR_46072","EUCLA58330","Ctenotus","euclae","euclae","Australia","L Gilles CP","SA",-33.093,136.693889,NA
"SAMR_46857_Ct_stra",9.994e-05,0.9993,9.994e-05,9.994e-05,9.994e-05,9.994e-05,9.994e-05,9.994e-05,"cluster_2",0.9993,"ABTC35912","SAM46857","SAMR_46857","STRAA35912","Ctenotus","strauchii","strauchii","Australia","10.9k NW Bitchera WH","SA",-26.524,134.4419,NA
"SAMR_54494_Ct_zebr",0.9993,9.994e-05,9.994e-05,9.994e-05,9.994e-05,9.994e-05,9.994e-05,9.994e-05,"cluster_1",0.9993,"ABTC72908","SAM54494","SAMR_54494","ZEBRA72908","Ctenotus","zebrilla","zebrilla","Australia","15k N Porcupine Creek Campground","QLD",-20.253,144.4656,NA
"SAMR_54511_Ct_zebr",0.9993,9.994e-05,9.994e-05,9.994e-05,9.994e-05,9.994e-05,9.994e-05,9.994e-05,"cluster_1",0.9993,"ABTC72937","SAM54511","SAMR_54511","ZEBRA72937","Ctenotus","zebrilla","zebrilla","Australia","Porcupine Creek, 27k N Porcupine Creek campground","QLD",-20.164,144.5183,NA
"SAMR_55734_Ct_stra",0.0268484,9.99479e-05,9.99479e-05,0.972552,9.99479e-05,9.99479e-05,9.99479e-05,9.99479e-05,"cluster_4",0.972552,"ABTC77050","SAM55734","SAMR_55734",NA,"Ctenotus","strauchii","strauchii","Australia","19k S Julia Creek on Julia Creek-Kynuna Road","QLD",-20.824,141.7464,NA
"SAMR_62029_Ct_calu",9.994e-05,9.994e-05,9.994e-05,9.994e-05,9.994e-05,9.994e-05,9.994e-05,0.9993,"cluster_8",0.9993,"ABTC91579","SAM62029","SAMR_62029","CALUA91579","Ctenotus","calurus","calurus","Australia","3.2k N Pungkulpirri Waterhole, Walter James Range","WA",-24.6286,128.7556,NA
"SAMR_62121_Ct_scho",9.99567e-05,0.0125826,9.99567e-05,9.99567e-05,9.99567e-05,0.00573855,0.981179,9.99567e-05,"cluster_7",0.981179,"ABTC91680","SAM62121","SAMR_62121","SCHOA91680","Ctenotus","schomburgkii","schomburgkii","Australia","Morgan Range, 17.3k ENE Blackstone","WA",-25.9325,128.4411,NA
"SAMR_65381_Ct_scho",9.994e-05,9.994e-05,9.994e-05,9.994e-05,9.994e-05,9.994e-05,0.9993,9.994e-05,"cluster_7",0.9993,"ABTC113874","SAM65381","SAMR_65381",NA,"Ctenotus","schomburgkii","schomburgkii","Australia","3.6k NNE Noonbah Homestead","QLD",-24.07556,143.1897,NA
"UMMZ_242648_Ct_scho",9.994e-05,9.994e-05,9.994e-05,9.994e-05,0.9993,9.994e-05,9.994e-05,9.994e-05,"cluster_5",0.9993,"UMFS_20665",NA,"UMMZ_242648",NA,"Ctenotus","schomburgkii","schomburgkii","Australia","Hamelin Station","WA",-26.4725,114.25648,NA
"WAMR_077870_Ct_scho",9.994e-05,9.994e-05,9.994e-05,9.994e-05,0.9993,9.994e-05,9.994e-05,9.994e-05,"cluster_5",0.9993,"WAM_R077870","WAM077870","WAMR_077870","SCHOW077870","Ctenotus","schomburgkii","schomburgkii","Australia","EYRE HS","WA",-32.103,126.291667,NA
"WAMR_100527_Ct_scho",9.994e-05,9.994e-05,9.994e-05,9.994e-05,0.9993,9.994e-05,9.994e-05,9.994e-05,"cluster_5",0.9993,"WAM_R100527","WAM100527","WAMR_100527","SCHOW100527","Ctenotus","schomburgkii","schomburgkii","Australia","MENZIES","WA",-29.833,120.916667,NA
"WAMR_102261_Ct_scho",9.994e-05,9.994e-05,9.994e-05,9.994e-05,0.9993,9.994e-05,9.994e-05,9.994e-05,"cluster_5",0.9993,"WAM_R102261","WAM102261","WAMR_102261","SCHOW102261","Ctenotus","schomburgkii","schomburgkii","Australia","BARLEE RANGE NATURE RESER","WA",-23.044,115.812222,NA
"WAMR_151241_Ct_scho",9.994e-05,9.994e-05,9.994e-05,9.994e-05,0.9993,9.994e-05,9.994e-05,9.994e-05,"cluster_5",0.9993,"WAM_R151241","WAM151241","WAMR_151241","SCHOW151241","Ctenotus","schomburgkii","schomburgkii","Australia","SALMON GUMS","WA",-32.86,121.4,NA
"WAMR_151655_Ct_scho",9.994e-05,9.994e-05,9.994e-05,9.994e-05,0.9993,9.994e-05,9.994e-05,9.994e-05,"cluster_5",0.9993,"WAM_R151655","WAM151655","WAMR_151655","SCHOW151655","Ctenotus","schomburgkii","schomburgkii","Australia","BINDOON","WA",-31.195,116.307222,NA
"WAMR_166440_Ct_calu",9.994e-05,9.994e-05,9.994e-05,9.994e-05,9.994e-05,9.994e-05,9.994e-05,0.9993,"cluster_8",0.9993,"ABTC91777","WAM166440","WAMR_166440",NA,"Ctenotus","calurus","calurus","Australia","18.3k ENE Blackstone","WA",-25.9308,128.4494,NA
